{"type": "FeatureCollection", "features": [{"type": "Feature", "geometry": {"type": "LineString", "coordinates": [[23.706421, 38.0026283], [23.7061331, 38.0024359], [23.7059185, 38.0022925], [23.7055844, 38.0020681]]}, "properties": {"feature_type": "road", "highway": "secondary", "landuse": ""}}, {"type": "Feature", "geometry": {"type": "LineString", "coordinates": [[23.7045894, 38.0013836], [23.7045407, 38.0013617], [23.7043681, 38.0012944], [23.7041928, 38.0012277], [23.7039722, 38.0011472]]}, "properties": {"feature_type": "road", "highway": "motorway", "landuse": ""}}, {"type": "Feature", "geometry": {"type": "LineString", "coordinates": [[23.7093399, 38.0013276], [23.7102943, 38.0010586], [23.710863, 38.0008948]]}, "properties": {"feature_type": "road", "highway": "residential", "landuse": ""}}, {"type": "Feature", "geometry": {"type": "LineString", "coordinates": [[23.7125318, 37.9970825], [23.7121212, 37.9974234], [23.7113421, 37.9981034], [23.7105175, 37.9987861], [23.7103636, 37.9989134], [23.7094862, 37.9996395], [23.7094489, 37.9996704], [23.7090462, 38.0000038], [23.7083326, 38.0005936], [23.7079654, 38.0008983], [23.7074379, 38.0013349]]}, "properties": {"feature_type": "road", "highway": "residential", "landuse": ""}}, {"type": "Feature", "geometry": {"type": "LineString", "coordinates": [[23.7079703, 38.0003095], [23.7086137, 37.9997835], [23.7090592, 37.999419]]}, "properties": {"feature_type": "road", "highway": "service", "landuse": ""}}, {"type": "Feature", "geometry": {"type": "LineString", "coordinates": [[23.7097129, 38.0005066], [23.708995, 38.0010666], [23.7086458, 38.0013698], [23.7081273, 38.0017892], [23.7080928, 38.0018171], [23.7080488, 38.0018527], [23.7076787, 38.002152], [23.707214, 38.0025279]]}, "properties": {"feature_type": "road", "highway": "residential", "landuse": ""}}, {"type": "Feature", "geometry": {"type": "LineString", "coordinates": [[23.700407, 38.0080715], [23.7003894, 38.0082763], [23.700329, 38.0089157], [23.7002683, 38.0093823], [23.700208, 38.0098858], [23.7001958, 38.0099931], [23.7001571, 38.0103359], [23.7001484, 38.0104948], [23.7001437, 38.0106445], [23.700142, 38.0108878], [23.7001397, 38.0109836]]}, "properties": {"feature_type": "road", "highway": "tertiary", "landuse": ""}}, {"type": "Feature", "geometry": {"type": "LineString", "coordinates": [[23.7066831, 38.0056805], [23.7065971, 38.0057314], [23.7065111, 38.0058065], [23.705949, 38.0061606], [23.7053197, 38.0065531], [23.7051377, 38.0066658], [23.7047742, 38.0069016], [23.7046955, 38.0069571]]}, "properties": {"feature_type": "road", "highway": "residential", "landuse": ""}}, {"type": "Feature", "geometry": {"type": "LineString", "coordinates": [[23.701668, 38.0044521], [23.7017739, 38.004538]]}, "properties": {"feature_type": "road", "highway": "residential", "landuse": ""}}, {"type": "Feature", "geometry": {"type": "LineString", "coordinates": [[23.7086963, 38.0102358], [23.7089557, 38.0101324], [23.7097721, 38.0098069], [23.7098339, 38.0097806], [23.710276, 38.0096024], [23.7107696, 38.0094027], [23.7110717, 38.0092808], [23.7112031, 38.0092095], [23.7112836, 38.0091651], [23.7113863, 38.0091429], [23.7119777, 38.0088967]]}, "properties": {"feature_type": "road", "highway": "residential", "landuse": ""}}, {"type": "Feature", "geometry": {"type": "LineString", "coordinates": [[23.7095374, 38.0049664], [23.7094575, 38.0049771], [23.7093989, 38.0050023]]}, "properties": {"feature_type": "road", "highway": "service", "landuse": ""}}, {"type": "Feature", "geometry": {"type": "LineString", "coordinates": [[23.706691, 38.0079833], [23.7074768, 38.0078242], [23.7083005, 38.0076666], [23.7088139, 38.0075629], [23.7088799, 38.0075238], [23.7091498, 38.0073159], [23.7096351, 38.006943], [23.7100739, 38.0065687], [23.7104112, 38.0062855], [23.7105926, 38.0061289], [23.7106706, 38.0060585]]}, "properties": {"feature_type": "road", "highway": "residential", "landuse": ""}}, {"type": "Feature", "geometry": {"type": "LineString", "coordinates": [[23.709656, 38.0077403], [23.7097755, 38.0078401], [23.709864, 38.0079732], [23.7101053, 38.008359], [23.7107696, 38.0094027]]}, "properties": {"feature_type": "road", "highway": "residential", "landuse": ""}}, {"type": "Feature", "geometry": {"type": "LineString", "coordinates": [[23.7095037, 38.0056663], [23.7092281, 38.0059531], [23.7088407, 38.0063551]]}, "properties": {"feature_type": "road", "highway": "residential", "landuse": ""}}, {"type": "Feature", "geometry": {"type": "LineString", "coordinates": [[23.7060638, 38.0046671], [23.7058716, 38.0037707], [23.7056296, 38.0025228]]}, "properties": {"feature_type": "road", "highway": "residential", "landuse": ""}}, {"type": "Feature", "geometry": {"type": "LineString", "coordinates": [[23.7011115, 38.0064953], [23.7010404, 38.0065373], [23.7009036, 38.0066178], [23.7007808, 38.0066901], [23.7005962, 38.0067989], [23.7004947, 38.0068586], [23.700453, 38.0068983], [23.7004296, 38.0069412], [23.7004106, 38.0069983], [23.7003796, 38.0070674], [23.7003563, 38.0071092], [23.7003343, 38.0071387], [23.7003091, 38.0071653], [23.700273, 38.0071997], [23.6998517, 38.0074927]]}, "properties": {"feature_type": "road", "highway": "residential", "landuse": ""}}, {"type": "Feature", "geometry": {"type": "LineString", "coordinates": [[23.7055697, 38.0047548], [23.7054189, 38.0048781], [23.705337, 38.0049353], [23.7048797, 38.0052546], [23.7042814, 38.0056673], [23.703653, 38.0061033], [23.7030315, 38.0065357], [23.7026035, 38.0068205], [23.7018718, 38.0073402]]}, "properties": {"feature_type": "road", "highway": "residential", "landuse": ""}}, {"type": "Feature", "geometry": {"type": "LineString", "coordinates": [[23.7020375, 38.0063959], [23.7026035, 38.0068205]]}, "properties": {"feature_type": "road", "highway": "residential", "landuse": ""}}, {"type": "Feature", "geometry": {"type": "LineString", "coordinates": [[23.7024474, 38.0060623], [23.7020375, 38.0063959], [23.7014514, 38.0068711]]}, "properties": {"feature_type": "road", "highway": "residential", "landuse": ""}}, {"type": "Feature", "geometry": {"type": "LineString", "coordinates": [[23.7041834, 38.006527], [23.7040997, 38.0065782], [23.7035288, 38.0069293], [23.7031568, 38.0071676], [23.7022428, 38.0077528]]}, "properties": {"feature_type": "road", "highway": "residential", "landuse": ""}}, {"type": "Feature", "geometry": {"type": "LineString", "coordinates": [[23.7053818, 38.0042322], [23.7052218, 38.0043624], [23.7047258, 38.0047903], [23.7045271, 38.0049617]]}, "properties": {"feature_type": "road", "highway": "residential", "landuse": ""}}, {"type": "Feature", "geometry": {"type": "LineString", "coordinates": [[23.7065364, 38.003674], [23.7058716, 38.0037707], [23.7052798, 38.0038526], [23.7049375, 38.0038953], [23.7048854, 38.0039106], [23.7048463, 38.0039434], [23.7041071, 38.0046073]]}, "properties": {"feature_type": "road", "highway": "residential", "landuse": ""}}, {"type": "Feature", "geometry": {"type": "LineString", "coordinates": [[23.7046967, 38.0021374], [23.7049806, 38.0029369], [23.7050168, 38.0030357], [23.7052798, 38.0038526], [23.7053818, 38.0042322], [23.7055061, 38.0045778], [23.7055697, 38.0047548], [23.7057756, 38.005416]]}, "properties": {"feature_type": "road", "highway": "residential", "landuse": ""}}, {"type": "Feature", "geometry": {"type": "LineString", "coordinates": [[23.7035259, 38.0030969], [23.7036082, 38.0031538], [23.7039005, 38.0033736], [23.7042674, 38.0036501]]}, "properties": {"feature_type": "road", "highway": "residential", "landuse": ""}}, {"type": "Feature", "geometry": {"type": "LineString", "coordinates": [[23.7021346, 38.0048198], [23.7039005, 38.0033736]]}, "properties": {"feature_type": "road", "highway": "residential", "landuse": ""}}, {"type": "Feature", "geometry": {"type": "LineString", "coordinates": [[23.7030709, 38.0046441], [23.7042814, 38.0056673], [23.7053197, 38.0065531]]}, "properties": {"feature_type": "road", "highway": "residential", "landuse": ""}}, {"type": "Feature", "geometry": {"type": "LineString", "coordinates": [[23.7066913, 38.0066168], [23.7060258, 38.007075], [23.70549, 38.0074306], [23.7053493, 38.007506], [23.7045243, 38.0079795], [23.7042904, 38.0081064]]}, "properties": {"feature_type": "road", "highway": "residential", "landuse": ""}}, {"type": "Feature", "geometry": {"type": "LineString", "coordinates": [[23.7040803, 38.0090077], [23.7045259, 38.0087563], [23.7048243, 38.008596], [23.7052614, 38.0083514], [23.7058302, 38.0080445], [23.7058719, 38.0080249], [23.7059463, 38.00799], [23.7060439, 38.0079415], [23.7064633, 38.0076638], [23.7065288, 38.0076324], [23.7065897, 38.0076175], [23.7066824, 38.0075949]]}, "properties": {"feature_type": "road", "highway": "residential", "landuse": ""}}, {"type": "Feature", "geometry": {"type": "LineString", "coordinates": [[23.701913, 38.0096195], [23.7019032, 38.0098039], [23.7018808, 38.0102148], [23.7018482, 38.0112424]]}, "properties": {"feature_type": "road", "highway": "residential", "landuse": ""}}, {"type": "Feature", "geometry": {"type": "LineString", "coordinates": [[23.7009166, 38.0094045], [23.7013153, 38.0098191], [23.7017542, 38.010284]]}, "properties": {"feature_type": "road", "highway": "residential", "landuse": ""}}, {"type": "Feature", "geometry": {"type": "LineString", "coordinates": [[23.700208, 38.0098858], [23.7005909, 38.0096257], [23.7009166, 38.0094045], [23.7013902, 38.0090828], [23.7016341, 38.008917], [23.7019557, 38.0086986]]}, "properties": {"feature_type": "road", "highway": "residential", "landuse": ""}}, {"type": "Feature", "geometry": {"type": "LineString", "coordinates": [[23.7041082, 38.0109696], [23.7040443, 38.0109128], [23.7037942, 38.0106434], [23.703402, 38.0101722], [23.7029663, 38.0096621], [23.7029319, 38.0096219]]}, "properties": {"feature_type": "road", "highway": "residential", "landuse": ""}}, {"type": "Feature", "geometry": {"type": "LineString", "coordinates": [[23.7033617, 38.0093961], [23.7034985, 38.0095101], [23.7040664, 38.0100448], [23.7045275, 38.0104914]]}, "properties": {"feature_type": "road", "highway": "residential", "landuse": ""}}, {"type": "Feature", "geometry": {"type": "LineString", "coordinates": [[23.7005909, 38.0096257], [23.7009634, 38.0100224], [23.7014407, 38.0104838]]}, "properties": {"feature_type": "road", "highway": "residential", "landuse": ""}}, {"type": "Feature", "geometry": {"type": "LineString", "coordinates": [[23.7000427, 38.008449], [23.6998892, 38.0082795], [23.6997489, 38.0081289], [23.6994508, 38.0077549]]}, "properties": {"feature_type": "road", "highway": "residential", "landuse": ""}}, {"type": "Feature", "geometry": {"type": "LineString", "coordinates": [[23.7003894, 38.0082763], [23.7002302, 38.0083556], [23.7000427, 38.008449]]}, "properties": {"feature_type": "road", "highway": "residential", "landuse": ""}}, {"type": "Feature", "geometry": {"type": "LineString", "coordinates": [[23.6989705, 38.0106237], [23.699196, 38.0105167], [23.6998742, 38.0101528], [23.7000711, 38.0100459], [23.7001958, 38.0099931]]}, "properties": {"feature_type": "road", "highway": "residential", "landuse": ""}}, {"type": "Feature", "geometry": {"type": "LineString", "coordinates": [[23.7048726, 38.0006309], [23.7052775, 38.0009253], [23.7056111, 38.0011746], [23.7056621, 38.0012127]]}, "properties": {"feature_type": "road", "highway": "residential", "landuse": ""}}, {"type": "Feature", "geometry": {"type": "LineString", "coordinates": [[23.7090462, 38.0000038], [23.7093827, 38.0002537]]}, "properties": {"feature_type": "road", "highway": "residential", "landuse": ""}}, {"type": "Feature", "geometry": {"type": "LineString", "coordinates": [[23.7070413, 38.0016632], [23.7076787, 38.002152], [23.7078604, 38.0023419], [23.7080334, 38.0024919], [23.7082154, 38.0026551], [23.708708, 38.0030964], [23.7089521, 38.0033416], [23.7090661, 38.0034346], [23.7091948, 38.0035191], [23.7093692, 38.0036058], [23.7096132, 38.0037157]]}, "properties": {"feature_type": "road", "highway": "residential", "landuse": ""}}, {"type": "Feature", "geometry": {"type": "LineString", "coordinates": [[23.7005807, 38.0044334], [23.700377, 38.0046736], [23.7001784, 38.0048829]]}, "properties": {"feature_type": "road", "highway": "tertiary", "landuse": ""}}, {"type": "Feature", "geometry": {"type": "LineString", "coordinates": [[23.7000854, 38.0053348], [23.7000131, 38.0054101]]}, "properties": {"feature_type": "road", "highway": "tertiary", "landuse": ""}}, {"type": "Feature", "geometry": {"type": "LineString", "coordinates": [[23.6973106, 38.0042502], [23.6973931, 38.0041732], [23.6976619, 38.0039966], [23.6980857, 38.0037184], [23.6981612, 38.003661], [23.6987888, 38.0033418], [23.6990736, 38.0031996], [23.6991339, 38.0031693], [23.6993045, 38.0030965], [23.6995684, 38.0029643], [23.7001464, 38.0026385]]}, "properties": {"feature_type": "road", "highway": "residential", "landuse": ""}}, {"type": "Feature", "geometry": {"type": "LineString", "coordinates": [[23.6987892, 38.0011285], [23.6992017, 38.0015751], [23.6995623, 38.001989], [23.6999119, 38.0023765], [23.7001464, 38.0026385], [23.7003584, 38.002914], [23.7006389, 38.0032761], [23.7011499, 38.0038749], [23.701198, 38.0039363]]}, "properties": {"feature_type": "road", "highway": "residential", "landuse": ""}}, {"type": "Feature", "geometry": {"type": "LineString", "coordinates": [[23.7006524, 38.0023166], [23.7009138, 38.0026297], [23.7012067, 38.0029832]]}, "properties": {"feature_type": "road", "highway": "residential", "landuse": ""}}, {"type": "Feature", "geometry": {"type": "LineString", "coordinates": [[23.7024027, 38.0032866], [23.7019857, 38.0026936], [23.7019197, 38.0026005], [23.7016967, 38.0023035], [23.7014437, 38.0019521]]}, "properties": {"feature_type": "road", "highway": "residential", "landuse": ""}}, {"type": "Feature", "geometry": {"type": "LineString", "coordinates": [[23.7047039, 38.0012536], [23.7048062, 38.0012992], [23.7049924, 38.0013852], [23.7051638, 38.0014666], [23.7053273, 38.001559], [23.7054872, 38.001651], [23.7056408, 38.0017471], [23.7058055, 38.0018439], [23.7058576, 38.0018771], [23.7059602, 38.0019424], [23.7061166, 38.0020399], [23.706269, 38.0021425], [23.7064304, 38.0022518], [23.7064947, 38.0022958]]}, "properties": {"feature_type": "road", "highway": "motorway", "landuse": ""}}, {"type": "Feature", "geometry": {"type": "Polygon", "coordinates": [[[23.702012, 38.0035003], [23.7024014, 38.0033146], [23.7032187, 38.002944], [23.7033348, 38.0030501], [23.7018348, 38.0042588], [23.7009725, 38.0049795], [23.7003106, 38.0055316], [23.7000839, 38.005277], [23.6997387, 38.0056717], [23.6992554, 38.0061956], [23.6990848, 38.0064172], [23.6988175, 38.0065992], [23.6969244, 38.0064679], [23.6960004, 38.006394], [23.6958103, 38.0062353], [23.6956893, 38.0061246], [23.6950819, 38.0053453], [23.6950321, 38.0052722], [23.6949181, 38.0051777], [23.6944232, 38.0048807], [23.6941329, 38.004691], [23.6936809, 38.0044789], [23.6933228, 38.0043344], [23.6928959, 38.0041703], [23.6928058, 38.0041281], [23.6926053, 38.0039466], [23.6923, 38.0035813], [23.6921937, 38.0034204], [23.6919367, 38.0029282], [23.6918104, 38.002683], [23.6925139, 38.0024249], [23.6923773, 38.0021911], [23.6923183, 38.0020828], [23.6921949, 38.0017811], [23.6922526, 38.0016592], [23.6922935, 38.0015118], [23.6922766, 38.0013963], [23.692433, 38.0010933], [23.6926778, 38.0008486], [23.6928964, 38.0004175], [23.6930211, 38.000157], [23.6931263, 37.9999003], [23.6931659, 37.9998796], [23.6932154, 37.9999141], [23.693408, 38.0003081], [23.6944661, 37.9999382], [23.6950515, 37.9997263], [23.6953573, 38.0000328], [23.6958658, 38.0004539], [23.6965716, 38.0010748], [23.6952822, 38.0017591], [23.6945129, 38.0021422], [23.6946191, 38.0022711], [23.6948106, 38.0024862], [23.6952076, 38.00287], [23.6961174, 38.0037519], [23.6965155, 38.0041619], [23.6965932, 38.0042295], [23.6966598, 38.0042648], [23.6966995, 38.0042747], [23.6968204, 38.0042934], [23.7007083, 38.0042891], [23.7007921, 38.004218], [23.7007275, 38.0041717], [23.7004962, 38.0041829], [23.7002027, 38.0039165], [23.6999042, 38.0036338], [23.6995905, 38.0033613], [23.7003461, 38.002943], [23.7006345, 38.0033095], [23.7011796, 38.0030197], [23.7015016, 38.002846], [23.7016276, 38.0030113], [23.7017523, 38.0031763], [23.7018763, 38.0033328], [23.7018826, 38.0033408], [23.7019623, 38.0034534], [23.702012, 38.0035003]]]}, "properties": {"feature_type": "urban", "highway": "", "landuse": "residential"}}, {"type": "Feature", "geometry": {"type": "LineString", "coordinates": [[23.7008769, 38.0041212], [23.7003001, 38.0034555]]}, "properties": {"feature_type": "road", "highway": "service", "landuse": ""}}, {"type": "Feature", "geometry": {"type": "LineString", "coordinates": [[23.7012133, 38.0048422], [23.7009095, 38.0046255], [23.7008797, 38.0045961], [23.7011227, 38.0043598], [23.701214, 38.0043579], [23.7013561, 38.0044512], [23.7015215, 38.0045784]]}, "properties": {"feature_type": "road", "highway": "service", "landuse": ""}}, {"type": "Feature", "geometry": {"type": "Polygon", "coordinates": [[[23.7026622, 38.0008937], [23.7008924, 38.0001351], [23.6977443, 37.9987348], [23.6975284, 37.9988217], [23.6973974, 37.9985668], [23.6966914, 37.9982522], [23.6962675, 37.9980618], [23.6959244, 37.9978865], [23.6956973, 37.9977574], [23.6953764, 37.9975364], [23.6945032, 37.9967697], [23.6944547, 37.9967582], [23.6939973, 37.9970549], [23.6936856, 37.997458], [23.693546, 37.9977475], [23.6936589, 37.9979617], [23.6946311, 37.9977617], [23.6946981, 37.9977627], [23.6947839, 37.997778], [23.6961174, 37.9983859], [23.6960013, 37.9984131], [23.6944299, 37.9989839], [23.6932437, 37.9994045], [23.693216, 37.9994337], [23.6932424, 37.9996751], [23.6934863, 38.0002245], [23.6950468, 37.9996714], [23.6963661, 37.9992541], [23.6977351, 38.0008476], [23.6981991, 38.0014003], [23.697432, 38.0018124], [23.6968338, 38.0012751], [23.6965929, 38.0010969], [23.6946235, 38.0021414], [23.6947631, 38.0023152], [23.6950797, 38.0026425], [23.6953727, 38.0028801], [23.6956433, 38.0031716], [23.6962503, 38.003723], [23.696713, 38.0041734], [23.6969082, 38.0042028], [23.6974923, 38.0042192], [23.6988428, 38.004214], [23.7003907, 38.0042202], [23.7003931, 38.0041838], [23.700369, 38.0041331], [23.6998291, 38.003619], [23.6994669, 38.0033853], [23.7003757, 38.0028927], [23.7006541, 38.0032457], [23.7014791, 38.0028144], [23.7015016, 38.002846], [23.7016276, 38.0030113], [23.7017523, 38.0031763], [23.7018763, 38.0033328], [23.7018826, 38.0033408], [23.7019623, 38.0034534], [23.7024711, 38.0032243], [23.7030505, 38.0029664], [23.7038524, 38.0025913], [23.7047987, 38.0018415], [23.7048122, 38.0017508], [23.7047685, 38.0016909], [23.7044366, 38.0015313], [23.7026622, 38.0008937]]]}, "properties": {"feature_type": "urban", "highway": "", "landuse": "industrial"}}, {"type": "Feature", "geometry": {"type": "LineString", "coordinates": [[23.7034949, 38.0079542], [23.704471, 38.0087136], [23.7045259, 38.0087563]]}, "properties": {"feature_type": "road", "highway": "residential", "landuse": ""}}, {"type": "Feature", "geometry": {"type": "LineString", "coordinates": [[23.7045243, 38.0079795], [23.70434, 38.0077883], [23.7040131, 38.0074652]]}, "properties": {"feature_type": "road", "highway": "residential", "landuse": ""}}, {"type": "Feature", "geometry": {"type": "LineString", "coordinates": [[23.7033601, 38.0073328], [23.7024966, 38.007962]]}, "properties": {"feature_type": "road", "highway": "residential", "landuse": ""}}, {"type": "Feature", "geometry": {"type": "LineString", "coordinates": [[23.7053717, 38.0056664], [23.705718, 38.0054466], [23.7057756, 38.005416], [23.7065898, 38.0053209], [23.7066655, 38.0053121]]}, "properties": {"feature_type": "road", "highway": "residential", "landuse": ""}}, {"type": "Feature", "geometry": {"type": "LineString", "coordinates": [[23.7066726, 38.0095635], [23.7063557, 38.0095857], [23.7060547, 38.0095824]]}, "properties": {"feature_type": "road", "highway": "service", "landuse": ""}}, {"type": "Feature", "geometry": {"type": "LineString", "coordinates": [[23.7066732, 38.0090242], [23.7064404, 38.0090873], [23.7063832, 38.0091028], [23.7062635, 38.0091601], [23.7057527, 38.0094309], [23.7056718, 38.0094559], [23.7053843, 38.0096093], [23.7052678, 38.0096806], [23.7051888, 38.0097606]]}, "properties": {"feature_type": "road", "highway": "residential", "landuse": ""}}, {"type": "Feature", "geometry": {"type": "LineString", "coordinates": [[23.7049904, 38.0079946], [23.7052614, 38.0083514]]}, "properties": {"feature_type": "road", "highway": "residential", "landuse": ""}}, {"type": "Feature", "geometry": {"type": "LineString", "coordinates": [[23.7062646, 38.0082588], [23.7062645, 38.0083584], [23.7062639, 38.0088059], [23.7062635, 38.0091601]]}, "properties": {"feature_type": "road", "highway": "residential", "landuse": ""}}, {"type": "Feature", "geometry": {"type": "LineString", "coordinates": [[23.7044488, 38.0082554], [23.7049904, 38.0079946], [23.7053426, 38.007818]]}, "properties": {"feature_type": "road", "highway": "residential", "landuse": ""}}, {"type": "Feature", "geometry": {"type": "LineString", "coordinates": [[23.7058404, 38.0103952], [23.7058311, 38.009948], [23.7058281, 38.0095335], [23.7058011, 38.009479], [23.7057527, 38.0094309]]}, "properties": {"feature_type": "road", "highway": "residential", "landuse": ""}}, {"type": "Feature", "geometry": {"type": "LineString", "coordinates": [[23.7058311, 38.009948], [23.706669, 38.0099497]]}, "properties": {"feature_type": "road", "highway": "residential", "landuse": ""}}, {"type": "Feature", "geometry": {"type": "LineString", "coordinates": [[23.7002591, 38.0079147], [23.7004113, 38.0078207], [23.7006944, 38.0076458]]}, "properties": {"feature_type": "road", "highway": "residential", "landuse": ""}}, {"type": "Feature", "geometry": {"type": "LineString", "coordinates": [[23.7016341, 38.008917], [23.7021587, 38.0093997]]}, "properties": {"feature_type": "road", "highway": "residential", "landuse": ""}}, {"type": "Feature", "geometry": {"type": "LineString", "coordinates": [[23.7026248, 38.0097899], [23.7029331, 38.0101463], [23.7029786, 38.0102963], [23.7030666, 38.0106319], [23.703062, 38.0106869]]}, "properties": {"feature_type": "road", "highway": "residential", "landuse": ""}}, {"type": "Feature", "geometry": {"type": "LineString", "coordinates": [[23.7126106, 38.0098387], [23.7119777, 38.0088967], [23.711698, 38.0084313], [23.7114412, 38.0080419], [23.7112809, 38.0077999], [23.7109732, 38.0073334], [23.7108968, 38.0072013], [23.7107921, 38.0070882], [23.7107229, 38.007028], [23.7100739, 38.0065687], [23.7092281, 38.0059531]]}, "properties": {"feature_type": "road", "highway": "residential", "landuse": ""}}, {"type": "Feature", "geometry": {"type": "LineString", "coordinates": [[23.7066714, 38.0098083], [23.7068233, 38.0098052], [23.7072509, 38.0097292], [23.7077128, 38.0096155]]}, "properties": {"feature_type": "road", "highway": "residential", "landuse": ""}}, {"type": "Feature", "geometry": {"type": "LineString", "coordinates": [[23.7072509, 38.0097292], [23.7074818, 38.0102165], [23.7077142, 38.0106167]]}, "properties": {"feature_type": "road", "highway": "residential", "landuse": ""}}, {"type": "Feature", "geometry": {"type": "LineString", "coordinates": [[23.7087736, 38.0092955], [23.7085133, 38.0089484]]}, "properties": {"feature_type": "road", "highway": "residential", "landuse": ""}}, {"type": "Feature", "geometry": {"type": "LineString", "coordinates": [[23.7079536, 38.0090751], [23.7079798, 38.0091144], [23.7081196, 38.0093274], [23.7082267, 38.0094937], [23.7084386, 38.0098328], [23.7086963, 38.0102358], [23.7092904, 38.0111396], [23.7093198, 38.0111844]]}, "properties": {"feature_type": "road", "highway": "residential", "landuse": ""}}, {"type": "Feature", "geometry": {"type": "LineString", "coordinates": [[23.7074469, 38.0091831], [23.7077128, 38.0096155], [23.7079551, 38.0100295], [23.708195, 38.0104356], [23.7084524, 38.0108796], [23.7084941, 38.0109366], [23.708887, 38.0113131], [23.7089244, 38.011349]]}, "properties": {"feature_type": "road", "highway": "residential", "landuse": ""}}, {"type": "Feature", "geometry": {"type": "LineString", "coordinates": [[23.7066692, 38.0104718], [23.7068443, 38.010463], [23.7074818, 38.0102165], [23.7079551, 38.0100295], [23.7084386, 38.0098328], [23.7086962, 38.0097294], [23.7094972, 38.009408]]}, "properties": {"feature_type": "road", "highway": "residential", "landuse": ""}}, {"type": "Feature", "geometry": {"type": "LineString", "coordinates": [[23.7079662, 38.0063538], [23.7091498, 38.0073159]]}, "properties": {"feature_type": "road", "highway": "residential", "landuse": ""}}, {"type": "Feature", "geometry": {"type": "LineString", "coordinates": [[23.7074768, 38.0078242], [23.7073365, 38.006767]]}, "properties": {"feature_type": "road", "highway": "residential", "landuse": ""}}, {"type": "Feature", "geometry": {"type": "LineString", "coordinates": [[23.7085388, 38.0079956], [23.7072556, 38.0082567], [23.7066813, 38.0083576]]}, "properties": {"feature_type": "road", "highway": "residential", "landuse": ""}}, {"type": "Feature", "geometry": {"type": "LineString", "coordinates": [[23.7066804, 38.0087659], [23.7073722, 38.0086339], [23.7087887, 38.0083687]]}, "properties": {"feature_type": "road", "highway": "residential", "landuse": ""}}, {"type": "Feature", "geometry": {"type": "LineString", "coordinates": [[23.7072556, 38.0082567], [23.7073722, 38.0086339], [23.7075381, 38.0091623]]}, "properties": {"feature_type": "road", "highway": "residential", "landuse": ""}}, {"type": "Feature", "geometry": {"type": "LineString", "coordinates": [[23.7073922, 38.0056384], [23.7073481, 38.0048692], [23.7073434, 38.004689], [23.7073396, 38.0045405], [23.7073314, 38.0042227]]}, "properties": {"feature_type": "road", "highway": "residential", "landuse": ""}}, {"type": "Feature", "geometry": {"type": "LineString", "coordinates": [[23.7073481, 38.0048692], [23.7078663, 38.0048771], [23.7079677, 38.0048786], [23.7081179, 38.0048655]]}, "properties": {"feature_type": "road", "highway": "residential", "landuse": ""}}, {"type": "Feature", "geometry": {"type": "LineString", "coordinates": [[23.7087298, 38.0053811], [23.7084156, 38.0058244], [23.7083425, 38.0059576], [23.7083016, 38.0060336], [23.7081292, 38.0062223], [23.7079662, 38.0063538], [23.7076344, 38.0065836], [23.7075688, 38.0066476]]}, "properties": {"feature_type": "road", "highway": "residential", "landuse": ""}}, {"type": "Feature", "geometry": {"type": "LineString", "coordinates": [[23.7070274, 38.0059322], [23.7066962, 38.0059416]]}, "properties": {"feature_type": "road", "highway": "residential", "landuse": ""}}, {"type": "Feature", "geometry": {"type": "LineString", "coordinates": [[23.7066831, 38.0056805], [23.7068244, 38.005649], [23.7069886, 38.0056447], [23.7073922, 38.0056384], [23.7075457, 38.0056405], [23.707677, 38.00566], [23.7077607, 38.005684], [23.7079514, 38.005751], [23.7080551, 38.005794], [23.7081834, 38.0058533], [23.7083425, 38.0059576]]}, "properties": {"feature_type": "road", "highway": "residential", "landuse": ""}}, {"type": "Feature", "geometry": {"type": "LineString", "coordinates": [[23.710276, 38.0096024], [23.7095852, 38.0085824], [23.7088799, 38.0075238]]}, "properties": {"feature_type": "road", "highway": "residential", "landuse": ""}}, {"type": "Feature", "geometry": {"type": "Polygon", "coordinates": [[[23.7072944, 38.0042295], [23.7073169, 38.0048926], [23.7074011, 38.0048918], [23.7080962, 38.0048932], [23.7086486, 38.0053552], [23.7087852, 38.0054439], [23.7095323, 38.0056976], [23.7105034, 38.0060259], [23.7110945, 38.0062751], [23.7112991, 38.0064137], [23.7117424, 38.0068257], [23.7123243, 38.0073603], [23.7128243, 38.0078281], [23.7122033, 38.0081833], [23.7124626, 38.0086215], [23.7119188, 38.0088598], [23.7125668, 38.0098294], [23.7120712, 38.0100339], [23.7114402, 38.0102912], [23.7104422, 38.0106781], [23.7092698, 38.0111696], [23.7087333, 38.011401], [23.708187, 38.0116863], [23.7077022, 38.0119658], [23.7069356, 38.0124333], [23.7068157, 38.0123795], [23.7066982, 38.0123473], [23.7067017, 38.011344], [23.7067101, 38.0105696], [23.7067276, 38.0089474], [23.7067546, 38.0063197], [23.7067564, 38.0059714], [23.7070026, 38.0059662], [23.7070774, 38.0059147], [23.7070535, 38.0058793], [23.7070098, 38.0056075], [23.7067407, 38.0056075], [23.7065926, 38.0037713], [23.7067353, 38.0037382], [23.7072944, 38.0042295]]]}, "properties": {"feature_type": "urban", "highway": "", "landuse": "residential"}}, {"type": "Feature", "geometry": {"type": "LineString", "coordinates": [[23.7085034, 38.0020805], [23.7081273, 38.0017892]]}, "properties": {"feature_type": "road", "highway": "service", "landuse": ""}}, {"type": "Feature", "geometry": {"type": "LineString", "coordinates": [[23.7054928, 38.0014846], [23.705325, 38.0016183]]}, "properties": {"feature_type": "road", "highway": "secondary", "landuse": ""}}, {"type": "Feature", "geometry": {"type": "LineString", "coordinates": [[23.7068671, 38.000212], [23.706798, 38.0001592], [23.7063093, 37.9997852], [23.7060557, 37.9995984], [23.7060073, 37.9995614], [23.7053617, 37.9990598], [23.7053499, 37.9990508]]}, "properties": {"feature_type": "road", "highway": "residential", "landuse": ""}}, {"type": "Feature", "geometry": {"type": "LineString", "coordinates": [[23.7052775, 38.0009253], [23.7060338, 38.0002885]]}, "properties": {"feature_type": "road", "highway": "residential", "landuse": ""}}, {"type": "Feature", "geometry": {"type": "LineString", "coordinates": [[23.7087178, 38.0008585], [23.7093827, 38.0002537]]}, "properties": {"feature_type": "road", "highway": "service", "landuse": ""}}, {"type": "Feature", "geometry": {"type": "LineString", "coordinates": [[23.7079654, 38.0008983], [23.7086458, 38.0013698], [23.7090498, 38.001842]]}, "properties": {"feature_type": "road", "highway": "service", "landuse": ""}}, {"type": "Feature", "geometry": {"type": "LineString", "coordinates": [[23.7074379, 38.0013349], [23.7070413, 38.0016632], [23.7066843, 38.0019586], [23.7064804, 38.0021274]]}, "properties": {"feature_type": "road", "highway": "residential", "landuse": ""}}, {"type": "Feature", "geometry": {"type": "LineString", "coordinates": [[23.7083326, 38.0005936], [23.7087178, 38.0008585], [23.708995, 38.0010666]]}, "properties": {"feature_type": "road", "highway": "residential", "landuse": ""}}, {"type": "Feature", "geometry": {"type": "LineString", "coordinates": [[23.710068, 38.001946], [23.710025, 38.0019394], [23.709957, 38.0019018], [23.709819, 38.0017861], [23.7093399, 38.0013276]]}, "properties": {"feature_type": "road", "highway": "residential", "landuse": ""}}, {"type": "Feature", "geometry": {"type": "LineString", "coordinates": [[23.7056356, 37.9999804], [23.7052543, 38.0003058], [23.7048726, 38.0006309], [23.7044396, 38.0010088]]}, "properties": {"feature_type": "road", "highway": "residential", "landuse": ""}}, {"type": "Feature", "geometry": {"type": "LineString", "coordinates": [[23.7080928, 38.0018171], [23.7075056, 38.0013847], [23.7074379, 38.0013349], [23.707245, 38.0011907]]}, "properties": {"feature_type": "road", "highway": "residential", "landuse": ""}}, {"type": "Feature", "geometry": {"type": "LineString", "coordinates": [[23.7065107, 38.0006457], [23.7064244, 38.0005797]]}, "properties": {"feature_type": "road", "highway": "residential", "landuse": ""}}, {"type": "Feature", "geometry": {"type": "LineString", "coordinates": [[23.7064244, 38.0005797], [23.7063562, 38.000526], [23.7060338, 38.0002885], [23.7056356, 37.9999804]]}, "properties": {"feature_type": "road", "highway": "residential", "landuse": ""}}, {"type": "Feature", "geometry": {"type": "LineString", "coordinates": [[23.7051511, 38.0098334], [23.7048553, 38.0101348], [23.7045275, 38.0104914]]}, "properties": {"feature_type": "road", "highway": "residential", "landuse": ""}}, {"type": "Feature", "geometry": {"type": "LineString", "coordinates": [[23.7093827, 38.0002537], [23.7097129, 38.0005066], [23.7100113, 38.0007291], [23.7101485, 38.0008715], [23.7102943, 38.0010586]]}, "properties": {"feature_type": "road", "highway": "residential", "landuse": ""}}, {"type": "Feature", "geometry": {"type": "LineString", "coordinates": [[23.7128333, 38.0067911], [23.7127896, 38.00682], [23.7123942, 38.0070801], [23.7121972, 38.0072112], [23.7112809, 38.0077999], [23.7110489, 38.007952], [23.7109195, 38.0080123], [23.7105968, 38.0081527], [23.7105521, 38.0081715], [23.7101053, 38.008359], [23.7095852, 38.0085824], [23.7092451, 38.0087404], [23.7090819, 38.0088095], [23.7089117, 38.0088587], [23.7085133, 38.0089484], [23.7079536, 38.0090751], [23.7075381, 38.0091623], [23.7074469, 38.0091831], [23.7067822, 38.0093275], [23.706675, 38.00935]]}, "properties": {"feature_type": "road", "highway": "residential", "landuse": ""}}, {"type": "Feature", "geometry": {"type": "LineString", "coordinates": [[23.7066297, 38.0027899], [23.7065739, 38.0028028], [23.7065395, 38.0028193], [23.7065078, 38.0028483], [23.7064809, 38.0028937], [23.7064509, 38.0029839]]}, "properties": {"feature_type": "road", "highway": "residential", "landuse": ""}}, {"type": "Feature", "geometry": {"type": "LineString", "coordinates": [[23.7089776, 38.0049944], [23.7090694, 38.0050165], [23.7091345, 38.0050287], [23.7091852, 38.0050303], [23.7092116, 38.0050266], [23.7092827, 38.0050133], [23.7093989, 38.0050023], [23.7095556, 38.0050509], [23.7099331, 38.0051803], [23.7100075, 38.0051835], [23.7100682, 38.0051725]]}, "properties": {"feature_type": "road", "highway": "service", "landuse": ""}}, {"type": "Feature", "geometry": {"type": "Polygon", "coordinates": [[[23.7128499, 37.9976613], [23.7120049, 37.9962987], [23.7119429, 37.9962641], [23.7118819, 37.9962902], [23.7074899, 37.9999025], [23.7087912, 38.0008426], [23.7100558, 38.0019058], [23.7109784, 38.0012118], [23.7103017, 37.999906], [23.7103871, 37.9992603], [23.7108515, 37.9989385], [23.7120325, 37.9985274], [23.7122552, 37.9985321], [23.7123189, 37.9983488], [23.712154, 37.9982959], [23.7122284, 37.9981602], [23.7124692, 37.9981471], [23.7124684, 37.9979926], [23.7125127, 37.9979857], [23.7125207, 37.9978563], [23.7127695, 37.9977696], [23.7128499, 37.9976613]]]}, "properties": {"feature_type": "urban", "highway": "", "landuse": "residential"}}, {"type": "Feature", "geometry": {"type": "Polygon", "coordinates": [[[23.7053945, 38.0014104], [23.7045687, 38.0010119], [23.7060856, 37.9995723], [23.706768, 37.9990198], [23.7068428, 37.999116], [23.7069562, 37.999201], [23.7071674, 37.9990177], [23.7071885, 37.998976], [23.7073588, 37.9989094], [23.7075291, 37.9991812], [23.7083465, 37.9989751], [23.7053945, 38.0014104]]]}, "properties": {"feature_type": "urban", "highway": "", "landuse": "residential"}}, {"type": "Feature", "geometry": {"type": "Polygon", "coordinates": [[[23.7056025, 38.001491], [23.7064918, 38.0007403], [23.7074602, 37.999951], [23.7088904, 38.0010516], [23.7096155, 38.0016681], [23.7096333, 38.0017427], [23.7092894, 38.0017776], [23.7085853, 38.0020766], [23.7078492, 38.0023677], [23.7080486, 38.0025735], [23.7076311, 38.0029211], [23.7064945, 38.0020695], [23.7056025, 38.001491]]]}, "properties": {"feature_type": "urban", "highway": "", "landuse": "residential"}}, {"type": "Feature", "geometry": {"type": "LineString", "coordinates": [[23.7022211, 38.0003284], [23.7036111, 38.0008424]]}, "properties": {"feature_type": "road", "highway": "motorway", "landuse": ""}}, {"type": "Feature", "geometry": {"type": "LineString", "coordinates": [[23.7011591, 37.9997059], [23.7019491, 38.0000561], [23.7023465, 38.0002366], [23.7026019, 38.0003378], [23.7028294, 38.0004244], [23.7033793, 38.0006245]]}, "properties": {"feature_type": "road", "highway": "secondary", "landuse": ""}}, {"type": "Feature", "geometry": {"type": "LineString", "coordinates": [[23.7012005, 38.0000725], [23.7006104, 37.9997934]]}, "properties": {"feature_type": "road", "highway": "motorway", "landuse": ""}}, {"type": "Feature", "geometry": {"type": "LineString", "coordinates": [[23.7083514, 38.0037886], [23.7085039, 38.0039125], [23.708644, 38.0040252], [23.7087899, 38.0041351], [23.7089328, 38.0042382], [23.7090864, 38.0043426], [23.7092376, 38.0044292], [23.7093916, 38.004517], [23.7095702, 38.0045999], [23.7097452, 38.0046786], [23.7099099, 38.0047468], [23.7108394, 38.0050797], [23.7110326, 38.0051562], [23.7112041, 38.0052285], [23.7113879, 38.005309]]}, "properties": {"feature_type": "road", "highway": "motorway", "landuse": ""}}, {"type": "Feature", "geometry": {"type": "LineString", "coordinates": [[23.700273, 38.0071997], [23.700306, 38.0072386], [23.7005111, 38.007458], [23.7005583, 38.0075056], [23.7006944, 38.0076458], [23.7007681, 38.0077256], [23.7013146, 38.0083169]]}, "properties": {"feature_type": "road", "highway": "residential", "landuse": ""}}, {"type": "Feature", "geometry": {"type": "LineString", "coordinates": [[23.7128333, 38.0067911], [23.7126455, 38.0066449], [23.7122901, 38.006376], [23.7120036, 38.0061365], [23.7116454, 38.005873], [23.7113683, 38.0056922], [23.71118, 38.0056023], [23.7110323, 38.0055318], [23.7106199, 38.0053668], [23.7100682, 38.0051725], [23.7096887, 38.0050301], [23.7095374, 38.0049664], [23.7093731, 38.0048954], [23.7093553, 38.004888], [23.7091122, 38.0047864], [23.708703, 38.0045303], [23.7082333, 38.0041675], [23.7082089, 38.0041469], [23.7076127, 38.00368], [23.7070158, 38.0031124], [23.7068334, 38.0029389]]}, "properties": {"feature_type": "road", "highway": "secondary", "landuse": ""}}, {"type": "Feature", "geometry": {"type": "LineString", "coordinates": [[23.7066297, 38.0027899], [23.706421, 38.0026283]]}, "properties": {"feature_type": "road", "highway": "secondary", "landuse": ""}}, {"type": "Feature", "geometry": {"type": "LineString", "coordinates": [[23.7068477, 38.0024012], [23.7071415, 38.0025912], [23.7078786, 38.0031813], [23.7080055, 38.0032849], [23.7081761, 38.0034352], [23.708612, 38.0038205], [23.7089498, 38.0040931], [23.7090801, 38.004195], [23.7094119, 38.0043922], [23.7095647, 38.0044636], [23.7096848, 38.0045191], [23.7100502, 38.004667], [23.7104928, 38.0048461], [23.7105206, 38.0048573], [23.7109923, 38.0050227], [23.7113127, 38.00515], [23.7115794, 38.0052735], [23.7118757, 38.0054191], [23.7121573, 38.0055956], [23.7124456, 38.0058048], [23.7126768, 38.0060035], [23.7126969, 38.00602], [23.7129218, 38.0062645]]}, "properties": {"feature_type": "road", "highway": "secondary", "landuse": ""}}, {"type": "Feature", "geometry": {"type": "LineString", "coordinates": [[23.7054928, 38.0014846], [23.7055649, 38.0015301], [23.7059662, 38.0017832]]}, "properties": {"feature_type": "road", "highway": "secondary", "landuse": ""}}, {"type": "Feature", "geometry": {"type": "LineString", "coordinates": [[23.7032424, 38.0010537], [23.702591, 38.0008222], [23.7025335, 38.0007971], [23.7022376, 38.0006813], [23.7017777, 38.0004951], [23.7012775, 38.000272], [23.7008345, 38.0000768], [23.7004083, 37.9998846], [23.7000973, 37.9997532], [23.698908, 37.9992142], [23.6987475, 37.9991392], [23.6985512, 37.9990526], [23.6981523, 37.9988544]]}, "properties": {"feature_type": "road", "highway": "secondary", "landuse": ""}}, {"type": "Feature", "geometry": {"type": "LineString", "coordinates": [[23.7003003, 38.0055732], [23.7003938, 38.0056785]]}, "properties": {"feature_type": "road", "highway": "tertiary", "landuse": ""}}, {"type": "Feature", "geometry": {"type": "LineString", "coordinates": [[23.7003003, 38.0055732], [23.7003512, 38.0055314], [23.7008607, 38.0051286], [23.7010616, 38.0049682], [23.7012133, 38.0048422], [23.7014272, 38.0046592], [23.7015215, 38.0045784], [23.7015805, 38.0045309], [23.7016191, 38.0044989], [23.701668, 38.0044521]]}, "properties": {"feature_type": "road", "highway": "secondary", "landuse": ""}}, {"type": "Feature", "geometry": {"type": "LineString", "coordinates": [[23.7030827, 38.0084044], [23.7030327, 38.0084631]]}, "properties": {"feature_type": "road", "highway": "tertiary", "landuse": ""}}, {"type": "Feature", "geometry": {"type": "LineString", "coordinates": [[23.7030827, 38.0084044], [23.7031633, 38.0084501], [23.7040803, 38.0090077]]}, "properties": {"feature_type": "road", "highway": "tertiary", "landuse": ""}}, {"type": "Feature", "geometry": {"type": "LineString", "coordinates": [[23.701913, 38.0096195], [23.7018163, 38.0095236]]}, "properties": {"feature_type": "road", "highway": "tertiary", "landuse": ""}}, {"type": "Feature", "geometry": {"type": "LineString", "coordinates": [[23.708494, 38.0093971], [23.7087736, 38.0092955], [23.7092887, 38.0091056]]}, "properties": {"feature_type": "road", "highway": "residential", "landuse": ""}}, {"type": "Feature", "geometry": {"type": "LineString", "coordinates": [[23.7005111, 38.007458], [23.7013317, 38.006953], [23.7013847, 38.0069224]]}, "properties": {"feature_type": "road", "highway": "residential", "landuse": ""}}, {"type": "Feature", "geometry": {"type": "LineString", "coordinates": [[23.7065364, 38.003674], [23.7066533, 38.0036618], [23.7067012, 38.0036756], [23.7073314, 38.0042227], [23.7076136, 38.0044533], [23.7077486, 38.0045637], [23.7079012, 38.0046884], [23.7081179, 38.0048655], [23.7086686, 38.0053325], [23.7087298, 38.0053811], [23.7089182, 38.0054599], [23.7095037, 38.0056663], [23.7097884, 38.0057514], [23.7106706, 38.0060585], [23.711063, 38.0062247], [23.7111846, 38.0062976], [23.7113895, 38.0064468], [23.7117414, 38.0067791], [23.7119574, 38.0069839], [23.7121972, 38.0072112], [23.7125375, 38.0075172], [23.7128609, 38.0078297]]}, "properties": {"feature_type": "road", "highway": "residential", "landuse": ""}}, {"type": "Feature", "geometry": {"type": "LineString", "coordinates": [[23.7057527, 38.0094309], [23.7048616, 38.0086296], [23.7048243, 38.008596], [23.7044488, 38.0082554], [23.7042904, 38.0081064], [23.7037675, 38.0076573], [23.7033601, 38.0073328], [23.7031568, 38.0071676]]}, "properties": {"feature_type": "road", "highway": "residential", "landuse": ""}}, {"type": "Feature", "geometry": {"type": "LineString", "coordinates": [[23.7030315, 38.0065357], [23.7024474, 38.0060623], [23.7018932, 38.0056229]]}, "properties": {"feature_type": "road", "highway": "residential", "landuse": ""}}, {"type": "Feature", "geometry": {"type": "LineString", "coordinates": [[23.7008886, 38.0085797], [23.7013146, 38.0083169], [23.701457, 38.0082327], [23.701783, 38.0080291], [23.7020946, 38.0078409], [23.7021734, 38.0077931]]}, "properties": {"feature_type": "road", "highway": "residential", "landuse": ""}}, {"type": "Feature", "geometry": {"type": "LineString", "coordinates": [[23.7008886, 38.0085797], [23.7004168, 38.0088611], [23.700329, 38.0089157], [23.7002039, 38.0089998], [23.6999545, 38.0091711], [23.6997005, 38.0093522], [23.6993766, 38.0095323], [23.6990975, 38.0096715], [23.6989193, 38.0097607], [23.698676, 38.0098821]]}, "properties": {"feature_type": "road", "highway": "residential", "landuse": ""}}, {"type": "Feature", "geometry": {"type": "LineString", "coordinates": [[23.7014437, 38.0019521], [23.7006524, 38.0023166]]}, "properties": {"feature_type": "road", "highway": "residential", "landuse": ""}}, {"type": "Feature", "geometry": {"type": "LineString", "coordinates": [[23.7019197, 38.0026005], [23.7012435, 38.0029612], [23.7012067, 38.0029832], [23.7006389, 38.0032761], [23.7003001, 38.0034555]]}, "properties": {"feature_type": "road", "highway": "residential", "landuse": ""}}, {"type": "Feature", "geometry": {"type": "LineString", "coordinates": [[23.7009138, 38.0026297], [23.7016967, 38.0023035]]}, "properties": {"feature_type": "road", "highway": "residential", "landuse": ""}}, {"type": "Feature", "geometry": {"type": "LineString", "coordinates": [[23.6995071, 38.0033786], [23.7003584, 38.002914]]}, "properties": {"feature_type": "road", "highway": "residential", "landuse": ""}}, {"type": "Feature", "geometry": {"type": "LineString", "coordinates": [[23.6974211, 38.0017927], [23.6981534, 38.0013997], [23.6983607, 38.0013036], [23.6985553, 38.001216], [23.6987892, 38.0011285], [23.6990029, 38.0010609], [23.69928, 38.0009935], [23.6999741, 38.0007872], [23.7000111, 38.0007695], [23.7000433, 38.00075], [23.7003741, 38.0004571], [23.700798, 38.0001231], [23.7008345, 38.0000768]]}, "properties": {"feature_type": "road", "highway": "residential", "landuse": ""}}, {"type": "Feature", "geometry": {"type": "LineString", "coordinates": [[23.7000854, 38.0053348], [23.7002388, 38.0055088], [23.7002635, 38.0055347], [23.7002845, 38.0055567], [23.7003003, 38.0055732]]}, "properties": {"feature_type": "road", "highway": "tertiary", "landuse": ""}}, {"type": "Feature", "geometry": {"type": "LineString", "coordinates": [[23.7064826, 38.0123842], [23.7063211, 38.012032], [23.706083, 38.0115122], [23.7057104, 38.0107032], [23.70558, 38.0104347], [23.7054003, 38.0101115], [23.7053515, 38.0100403], [23.7052889, 38.0099667], [23.7051511, 38.0098334]]}, "properties": {"feature_type": "road", "highway": "tertiary", "landuse": ""}}, {"type": "Feature", "geometry": {"type": "LineString", "coordinates": [[23.7017921, 38.0072478], [23.7018718, 38.0073402], [23.7022428, 38.0077528], [23.7023429, 38.0078459], [23.7024966, 38.007962], [23.7029545, 38.0083173], [23.7030011, 38.0083524], [23.7030827, 38.0084044]]}, "properties": {"feature_type": "road", "highway": "tertiary", "landuse": ""}}, {"type": "Feature", "geometry": {"type": "LineString", "coordinates": [[23.7018163, 38.0095236], [23.7013153, 38.0098191], [23.7009634, 38.0100224], [23.7006688, 38.0101941], [23.7004158, 38.0103379], [23.7001484, 38.0104948], [23.6994896, 38.010839]]}, "properties": {"feature_type": "road", "highway": "residential", "landuse": ""}}, {"type": "Feature", "geometry": {"type": "LineString", "coordinates": [[23.7030327, 38.0084631], [23.7029444, 38.0084007], [23.7028429, 38.0083274], [23.7023754, 38.0079532], [23.7022872, 38.0078872], [23.7022416, 38.0078499]]}, "properties": {"feature_type": "road", "highway": "tertiary", "landuse": ""}}, {"type": "Feature", "geometry": {"type": "LineString", "coordinates": [[23.7030327, 38.0084631], [23.702997, 38.0085029], [23.702828, 38.0086861], [23.7026842, 38.0088502]]}, "properties": {"feature_type": "road", "highway": "tertiary", "landuse": ""}}, {"type": "Feature", "geometry": {"type": "LineString", "coordinates": [[23.7051511, 38.0098334], [23.7051888, 38.0097606]]}, "properties": {"feature_type": "road", "highway": "residential", "landuse": ""}}, {"type": "Feature", "geometry": {"type": "LineString", "coordinates": [[23.7049797, 38.0096795], [23.704822, 38.0095624], [23.7046287, 38.0094265], [23.704546, 38.0093756], [23.7040087, 38.0090448]]}, "properties": {"feature_type": "road", "highway": "tertiary", "landuse": ""}}, {"type": "Feature", "geometry": {"type": "LineString", "coordinates": [[23.7014407, 38.0104838], [23.7017542, 38.010284], [23.7018808, 38.0102148], [23.7020738, 38.010106], [23.7022595, 38.0099961]]}, "properties": {"feature_type": "road", "highway": "residential", "landuse": ""}}, {"type": "Feature", "geometry": {"type": "LineString", "coordinates": [[23.7040803, 38.0090077], [23.70467, 38.0093766], [23.7048557, 38.0095122], [23.7050361, 38.0096506], [23.7051888, 38.0097606], [23.7052876, 38.0098555], [23.7054249, 38.0100084], [23.7056713, 38.0104157], [23.7061711, 38.0114785], [23.7065699, 38.012373]]}, "properties": {"feature_type": "road", "highway": "tertiary", "landuse": ""}}, {"type": "Feature", "geometry": {"type": "LineString", "coordinates": [[23.7066831, 38.0056805], [23.7066655, 38.0053121], [23.7065364, 38.003674], [23.7064603, 38.0030991], [23.7064509, 38.0029839]]}, "properties": {"feature_type": "road", "highway": "residential", "landuse": ""}}, {"type": "Feature", "geometry": {"type": "LineString", "coordinates": [[23.7066732, 38.0090242], [23.7066804, 38.0087659], [23.7066803, 38.0087275], [23.70668, 38.0086318], [23.7066808, 38.0085545], [23.7066813, 38.0083576], [23.706691, 38.0079833], [23.7066824, 38.0075949]]}, "properties": {"feature_type": "road", "highway": "residential", "landuse": ""}}, {"type": "Feature", "geometry": {"type": "LineString", "coordinates": [[23.7066824, 38.0075949], [23.7066914, 38.0068771], [23.7066916, 38.0067904], [23.7066913, 38.0066168], [23.7066962, 38.0059416], [23.7066831, 38.0056805]]}, "properties": {"feature_type": "road", "highway": "residential", "landuse": ""}}, {"type": "Feature", "geometry": {"type": "LineString", "coordinates": [[23.7080488, 38.0018527], [23.7083997, 38.0021268]]}, "properties": {"feature_type": "road", "highway": "service", "landuse": ""}}, {"type": "Feature", "geometry": {"type": "Polygon", "coordinates": [[[23.7066898, 37.9966327], [23.7066736, 37.9966369], [23.704715, 37.997145], [23.7046436, 37.9971727], [23.7041068, 37.9973809], [23.7032717, 37.9978906], [23.7040537, 37.9987084], [23.704435, 37.9992485], [23.7048497, 37.9995178], [23.7047789, 37.9995955], [23.7047101, 37.9996517], [23.7052909, 38.0001982], [23.7053542, 38.0002636], [23.7056356, 37.9999804], [23.7056875, 37.9999313], [23.7061974, 37.9994526], [23.706768, 37.9990198], [23.7068626, 37.998921], [23.706526, 37.9986801], [23.7065823, 37.9986177], [23.7063034, 37.998419], [23.7068846, 37.9979698], [23.706259, 37.9974678], [23.706992, 37.997275], [23.7066898, 37.9966327]]]}, "properties": {"feature_type": "urban", "highway": "", "landuse": "residential"}}, {"type": "Feature", "geometry": {"type": "LineString", "coordinates": [[23.7019857, 38.0026936], [23.7024789, 38.0024734], [23.7028091, 38.0023248]]}, "properties": {"feature_type": "road", "highway": "residential", "landuse": ""}}, {"type": "Feature", "geometry": {"type": "LineString", "coordinates": [[23.7005286, 38.0042383], [23.7005705, 38.0042686], [23.7005969, 38.0043088], [23.7006037, 38.0043609], [23.7005807, 38.0044334], [23.700551, 38.0045177], [23.7002253, 38.0051206], [23.7001965, 38.005174]]}, "properties": {"feature_type": "road", "highway": "tertiary", "landuse": ""}}, {"type": "Feature", "geometry": {"type": "LineString", "coordinates": [[23.7033617, 38.0093961], [23.7039378, 38.0090738], [23.7040087, 38.0090448], [23.7040803, 38.0090077]]}, "properties": {"feature_type": "road", "highway": "residential", "landuse": ""}}, {"type": "Feature", "geometry": {"type": "LineString", "coordinates": [[23.7021734, 38.0077931], [23.7020642, 38.0076782], [23.7017981, 38.0073903], [23.7017212, 38.0072988]]}, "properties": {"feature_type": "road", "highway": "tertiary", "landuse": ""}}, {"type": "Feature", "geometry": {"type": "LineString", "coordinates": [[23.7021734, 38.0077931], [23.7022428, 38.0077528]]}, "properties": {"feature_type": "road", "highway": "residential", "landuse": ""}}, {"type": "Feature", "geometry": {"type": "LineString", "coordinates": [[23.7005286, 38.0042383], [23.7006271, 38.0042271], [23.7007064, 38.0042026], [23.7008, 38.0041608], [23.7008769, 38.0041212], [23.701198, 38.0039363], [23.7017369, 38.0036335], [23.7020769, 38.0034388], [23.7024027, 38.0032866], [23.7028995, 38.003058], [23.7032406, 38.0029029], [23.7033875, 38.0028347], [23.7037077, 38.0026787], [23.7040238, 38.0025376]]}, "properties": {"feature_type": "road", "highway": "tertiary", "landuse": ""}}, {"type": "Feature", "geometry": {"type": "LineString", "coordinates": [[23.7046955, 38.0069571], [23.7046357, 38.0070002], [23.704162, 38.0073515], [23.7040131, 38.0074652], [23.7037675, 38.0076573], [23.7034949, 38.0079542], [23.7031552, 38.0083229], [23.7031464, 38.0083346], [23.7030827, 38.0084044]]}, "properties": {"feature_type": "road", "highway": "residential", "landuse": ""}}, {"type": "Feature", "geometry": {"type": "LineString", "coordinates": [[23.7046955, 38.0069571], [23.7053493, 38.007506], [23.7059463, 38.00799], [23.7062646, 38.0082588], [23.7064506, 38.008391], [23.7066808, 38.0085545]]}, "properties": {"feature_type": "road", "highway": "residential", "landuse": ""}}, {"type": "Feature", "geometry": {"type": "LineString", "coordinates": [[23.7034222, 38.0030264], [23.7040238, 38.0025376]]}, "properties": {"feature_type": "road", "highway": "secondary", "landuse": ""}}, {"type": "Feature", "geometry": {"type": "LineString", "coordinates": [[23.7017739, 38.004538], [23.7018028, 38.0045606], [23.7018742, 38.0046166], [23.7019175, 38.0046506], [23.7021346, 38.0048198], [23.7022898, 38.0049469], [23.7024919, 38.0051241], [23.7035457, 38.0060134], [23.703653, 38.0061033], [23.7041834, 38.006527], [23.7044653, 38.0067652], [23.7046955, 38.0069571]]}, "properties": {"feature_type": "road", "highway": "residential", "landuse": ""}}, {"type": "Feature", "geometry": {"type": "LineString", "coordinates": [[23.7017739, 38.004538], [23.701723, 38.0045801], [23.701451, 38.0048048], [23.7013414, 38.0048954], [23.7007961, 38.005346]]}, "properties": {"feature_type": "road", "highway": "secondary", "landuse": ""}}, {"type": "Feature", "geometry": {"type": "LineString", "coordinates": [[23.7042674, 38.0036501], [23.7036113, 38.0041879], [23.7030709, 38.0046441], [23.702581, 38.0050511], [23.7025428, 38.0050815], [23.7024919, 38.0051241], [23.7018932, 38.0056229], [23.7010545, 38.0063253], [23.7010011, 38.0063699], [23.700935, 38.0064194]]}, "properties": {"feature_type": "road", "highway": "residential", "landuse": ""}}, {"type": "Feature", "geometry": {"type": "LineString", "coordinates": [[23.7036113, 38.0041879], [23.7041071, 38.0046073], [23.7045271, 38.0049617], [23.7048797, 38.0052546], [23.7053717, 38.0056664], [23.705949, 38.0061606]]}, "properties": {"feature_type": "road", "highway": "residential", "landuse": ""}}, {"type": "Feature", "geometry": {"type": "LineString", "coordinates": [[23.7028091, 38.0023248], [23.7032406, 38.0029029]]}, "properties": {"feature_type": "road", "highway": "residential", "landuse": ""}}, {"type": "Feature", "geometry": {"type": "LineString", "coordinates": [[23.7070274, 38.0059322], [23.7075688, 38.0066476], [23.7083005, 38.0076666], [23.7085388, 38.0079956], [23.7086631, 38.0081837], [23.7087887, 38.0083687], [23.7090819, 38.0088095], [23.7092887, 38.0091056], [23.7094972, 38.009408], [23.7097721, 38.0098069], [23.7098464, 38.0099164], [23.7100749, 38.0102513], [23.7101824, 38.0103966], [23.7103676, 38.010677], [23.7104097, 38.0107408]]}, "properties": {"feature_type": "road", "highway": "residential", "landuse": ""}}, {"type": "Feature", "geometry": {"type": "LineString", "coordinates": [[23.7002321, 38.00563], [23.7003003, 38.0055732]]}, "properties": {"feature_type": "road", "highway": "secondary", "landuse": ""}}, {"type": "Feature", "geometry": {"type": "LineString", "coordinates": [[23.7046967, 38.0021374], [23.7044258, 38.0023599], [23.7035259, 38.0030969]]}, "properties": {"feature_type": "road", "highway": "secondary", "landuse": ""}}, {"type": "Feature", "geometry": {"type": "LineString", "coordinates": [[23.7003251, 38.005735], [23.7002474, 38.0057995], [23.7001746, 38.0058604], [23.700022, 38.0059858]]}, "properties": {"feature_type": "road", "highway": "secondary", "landuse": ""}}, {"type": "Feature", "geometry": {"type": "LineString", "coordinates": [[23.7003251, 38.005735], [23.7002321, 38.00563]]}, "properties": {"feature_type": "road", "highway": "tertiary", "landuse": ""}}, {"type": "Feature", "geometry": {"type": "LineString", "coordinates": [[23.7007546, 38.0062175], [23.7007157, 38.0061748], [23.7005892, 38.0060358], [23.7004229, 38.0058532], [23.7003967, 38.0058204], [23.7003413, 38.0057544], [23.7003251, 38.005735]]}, "properties": {"feature_type": "road", "highway": "tertiary", "landuse": ""}}, {"type": "Feature", "geometry": {"type": "LineString", "coordinates": [[23.7047319, 38.0015993], [23.7045704, 38.0015315], [23.7043676, 38.0014466]]}, "properties": {"feature_type": "road", "highway": "secondary", "landuse": ""}}, {"type": "Feature", "geometry": {"type": "LineString", "coordinates": [[23.7008886, 38.0085797], [23.7013902, 38.0090828], [23.7017762, 38.0094805], [23.7018163, 38.0095236]]}, "properties": {"feature_type": "road", "highway": "tertiary", "landuse": ""}}, {"type": "Feature", "geometry": {"type": "LineString", "coordinates": [[23.7017212, 38.0072988], [23.7016367, 38.0072043], [23.7013847, 38.0069224], [23.7010404, 38.0065373]]}, "properties": {"feature_type": "road", "highway": "tertiary", "landuse": ""}}, {"type": "Feature", "geometry": {"type": "LineString", "coordinates": [[23.7003938, 38.0056785], [23.7003251, 38.005735]]}, "properties": {"feature_type": "road", "highway": "secondary", "landuse": ""}}, {"type": "Feature", "geometry": {"type": "LineString", "coordinates": [[23.7003938, 38.0056785], [23.7004688, 38.0057633], [23.7008345, 38.0061781], [23.7010011, 38.0063699], [23.7011115, 38.0064953]]}, "properties": {"feature_type": "road", "highway": "tertiary", "landuse": ""}}, {"type": "Feature", "geometry": {"type": "LineString", "coordinates": [[23.7002321, 38.00563], [23.7001953, 38.0055921], [23.7000131, 38.0054101]]}, "properties": {"feature_type": "road", "highway": "tertiary", "landuse": ""}}, {"type": "Feature", "geometry": {"type": "LineString", "coordinates": [[23.7064509, 38.0029839], [23.7064192, 38.0027119], [23.706421, 38.0026283]]}, "properties": {"feature_type": "road", "highway": "residential", "landuse": ""}}, {"type": "Feature", "geometry": {"type": "LineString", "coordinates": [[23.7003001, 38.0034555], [23.6999115, 38.0036696]]}, "properties": {"feature_type": "road", "highway": "residential", "landuse": ""}}, {"type": "Feature", "geometry": {"type": "LineString", "coordinates": [[23.7006524, 38.0023166], [23.700496, 38.0021228], [23.7004649, 38.0021147], [23.7004226, 38.0021163], [23.7003683, 38.002139], [23.6999119, 38.0023765]]}, "properties": {"feature_type": "road", "highway": "residential", "landuse": ""}}, {"type": "Feature", "geometry": {"type": "Polygon", "coordinates": [[[23.7066808, 37.9882257], [23.7064174, 37.9883959], [23.6981552, 37.9939619], [23.6980329, 37.994043], [23.6979835, 37.9940758], [23.6971733, 37.9946132], [23.6950095, 37.9961178], [23.6950055, 37.9961801], [23.6949952, 37.9963713], [23.6959778, 37.9971893], [23.6966172, 37.9975995], [23.6974106, 37.9979819], [23.69838, 37.998399], [23.6993189, 37.9988508], [23.7003227, 37.9993025], [23.7022306, 38.0001203], [23.7044469, 38.0009767], [23.7053542, 38.0002636], [23.7052909, 38.0001982], [23.7047101, 37.9996517], [23.7047789, 37.9995955], [23.7048497, 37.9995178], [23.704435, 37.9992485], [23.7040537, 37.9987084], [23.7032717, 37.9978906], [23.7041068, 37.9973809], [23.7046436, 37.9971727], [23.704715, 37.997145], [23.7066736, 37.9966369], [23.7066898, 37.9966327], [23.7070848, 37.9961874], [23.70491, 37.9943206], [23.703953, 37.9938924], [23.7049879, 37.9933256], [23.7053398, 37.9931633], [23.7063467, 37.9928885], [23.706052, 37.9922452], [23.7048453, 37.9911019], [23.7051886, 37.9908736], [23.7050491, 37.9906623], [23.7079967, 37.9888642], [23.706895, 37.9882081], [23.7066808, 37.9882257]]]}, "properties": {"feature_type": "urban", "highway": "", "landuse": "industrial"}}, {"type": "Feature", "geometry": {"type": "LineString", "coordinates": [[23.7072848, 38.0031256], [23.7071506, 38.0030113], [23.7070082, 38.0028932], [23.7068687, 38.0027838], [23.7067357, 38.0026827], [23.7065913, 38.0025753], [23.7064472, 38.002472], [23.7063628, 38.0024143], [23.7063055, 38.0023751], [23.7061468, 38.0022682], [23.7060009, 38.0021703], [23.7058444, 38.0020728], [23.7057434, 38.0020083], [23.7056856, 38.0019713], [23.7055295, 38.0018793], [23.7053707, 38.0017809], [23.7052115, 38.0016895], [23.7050481, 38.001597], [23.7048885, 38.00152], [23.7047046, 38.0014354], [23.7045894, 38.0013836]]}, "properties": {"feature_type": "road", "highway": "motorway", "landuse": ""}}, {"type": "Feature", "geometry": {"type": "LineString", "coordinates": [[23.7048138, 38.0018957], [23.7049306, 38.0018008], [23.7049613, 38.0017759], [23.7049977, 38.0017463]]}, "properties": {"feature_type": "road", "highway": "secondary", "landuse": ""}}, {"type": "Feature", "geometry": {"type": "LineString", "coordinates": [[23.7055844, 38.0020681], [23.7053549, 38.0019376]]}, "properties": {"feature_type": "road", "highway": "secondary", "landuse": ""}}, {"type": "Feature", "geometry": {"type": "LineString", "coordinates": [[23.7053903, 38.0014349], [23.7054928, 38.0014846]]}, "properties": {"feature_type": "road", "highway": "secondary", "landuse": ""}}, {"type": "Feature", "geometry": {"type": "LineString", "coordinates": [[23.7043676, 38.0014466], [23.7035761, 38.0011716], [23.7032424, 38.0010537]]}, "properties": {"feature_type": "road", "highway": "secondary", "landuse": ""}}, {"type": "Feature", "geometry": {"type": "LineString", "coordinates": [[23.7061387, 38.0018939], [23.7064804, 38.0021274], [23.7068477, 38.0024012]]}, "properties": {"feature_type": "road", "highway": "secondary", "landuse": ""}}, {"type": "Feature", "geometry": {"type": "LineString", "coordinates": [[23.7053549, 38.0019376], [23.7051969, 38.0018533], [23.7051532, 38.00183], [23.7051034, 38.0018034]]}, "properties": {"feature_type": "road", "highway": "secondary", "landuse": ""}}, {"type": "Feature", "geometry": {"type": "LineString", "coordinates": [[23.7033793, 38.0006245], [23.7042417, 38.000936], [23.704357, 38.0009794], [23.7044396, 38.0010088], [23.7047153, 38.0011186], [23.7049687, 38.0012303]]}, "properties": {"feature_type": "road", "highway": "secondary", "landuse": ""}}, {"type": "Feature", "geometry": {"type": "LineString", "coordinates": [[23.7074387, 38.003024], [23.7083514, 38.0037886]]}, "properties": {"feature_type": "road", "highway": "motorway", "landuse": ""}}, {"type": "Feature", "geometry": {"type": "LineString", "coordinates": [[23.7086759, 38.004262], [23.7085092, 38.0041411], [23.7083592, 38.004021], [23.7082201, 38.0039075], [23.7072848, 38.0031256]]}, "properties": {"feature_type": "road", "highway": "motorway", "landuse": ""}}, {"type": "Feature", "geometry": {"type": "LineString", "coordinates": [[23.7074298, 37.9998856], [23.7066755, 38.0005094], [23.7065107, 38.0006457]]}, "properties": {"feature_type": "road", "highway": "secondary", "landuse": ""}}, {"type": "Feature", "geometry": {"type": "LineString", "coordinates": [[23.7064244, 38.0005797], [23.7066579, 38.0003858], [23.7068671, 38.000212], [23.7073414, 37.9998182]]}, "properties": {"feature_type": "road", "highway": "secondary", "landuse": ""}}, {"type": "Feature", "geometry": {"type": "LineString", "coordinates": [[23.7051894, 38.0015947], [23.7053903, 38.0014349]]}, "properties": {"feature_type": "road", "highway": "secondary", "landuse": ""}}, {"type": "Feature", "geometry": {"type": "LineString", "coordinates": [[23.7065107, 38.0006457], [23.7064309, 38.0007117], [23.7057638, 38.0012634]]}, "properties": {"feature_type": "road", "highway": "secondary", "landuse": ""}}, {"type": "Feature", "geometry": {"type": "LineString", "coordinates": [[23.701668, 38.0044521], [23.7030899, 38.0032965], [23.7033149, 38.0031136], [23.7034222, 38.0030264]]}, "properties": {"feature_type": "road", "highway": "secondary", "landuse": ""}}, {"type": "Feature", "geometry": {"type": "LineString", "coordinates": [[23.7035259, 38.0030969], [23.701881, 38.0044516], [23.7017739, 38.004538]]}, "properties": {"feature_type": "road", "highway": "secondary", "landuse": ""}}, {"type": "Feature", "geometry": {"type": "LineString", "coordinates": [[23.6998454, 38.0059428], [23.7001163, 38.0057238], [23.7001438, 38.0057015], [23.7002321, 38.00563]]}, "properties": {"feature_type": "road", "highway": "secondary", "landuse": ""}}, {"type": "Feature", "geometry": {"type": "LineString", "coordinates": [[23.708708, 38.0030964], [23.7084827, 38.0032391], [23.7082855, 38.0033659]]}, "properties": {"feature_type": "road", "highway": "service", "landuse": ""}}, {"type": "Feature", "geometry": {"type": "LineString", "coordinates": [[23.7082154, 38.0026551], [23.70813, 38.0027561], [23.7080629, 38.0028555], [23.7079932, 38.0029823], [23.7079215, 38.0031154]]}, "properties": {"feature_type": "road", "highway": "service", "landuse": ""}}, {"type": "Feature", "geometry": {"type": "LineString", "coordinates": [[23.7078604, 38.0023419], [23.7083997, 38.0021268], [23.7085034, 38.0020805]]}, "properties": {"feature_type": "road", "highway": "residential", "landuse": ""}}, {"type": "Feature", "geometry": {"type": "LineString", "coordinates": [[23.711481, 38.0041773], [23.7113902, 38.0040549], [23.7113312, 38.0039703], [23.7112319, 38.0038277], [23.7110455, 38.0035381], [23.7108377, 38.0032243], [23.7107304, 38.0030531], [23.7106405, 38.002939], [23.7103643, 38.0026103], [23.71021, 38.0024116], [23.7101296, 38.0023281], [23.7100558, 38.002269], [23.7098908, 38.0021643], [23.7097675, 38.0020914], [23.7097138, 38.0020724], [23.7096763, 38.0020703], [23.7096159, 38.0020883], [23.7087871, 38.0025099], [23.7087254, 38.002549], [23.7087093, 38.0025828], [23.7087093, 38.0026198], [23.7087241, 38.0026653], [23.7088984, 38.0028829], [23.708948, 38.0029252], [23.7089923, 38.0029421], [23.7090486, 38.0029453], [23.7091479, 38.0029146], [23.7092592, 38.0028639], [23.7094094, 38.0028079], [23.7094603, 38.0028037], [23.7095086, 38.0028174], [23.7096079, 38.002902], [23.7097688, 38.0031017], [23.7098935, 38.0032623], [23.7099177, 38.0033057], [23.709919, 38.0033405], [23.7098975, 38.003406], [23.7098506, 38.0035233], [23.7098399, 38.0035836], [23.7098466, 38.0036322], [23.7098747, 38.0036787], [23.7099552, 38.0037706], [23.7101617, 38.0040179], [23.710261, 38.0041267], [23.7103763, 38.0042652], [23.7104917, 38.0044237], [23.7105768, 38.0045394]]}, "properties": {"feature_type": "road", "highway": "service", "landuse": ""}}, {"type": "Feature", "geometry": {"type": "LineString", "coordinates": [[23.7030899, 38.0032965], [23.7031019, 38.003185], [23.7031928, 38.0031076], [23.7033149, 38.0031136]]}, "properties": {"feature_type": "road", "highway": "service", "landuse": ""}}, {"type": "Feature", "geometry": {"type": "LineString", "coordinates": [[23.6995302, 38.0059268], [23.6997758, 38.0056684], [23.6999737, 38.0054499], [23.7000131, 38.0054101]]}, "properties": {"feature_type": "road", "highway": "residential", "landuse": ""}}, {"type": "Feature", "geometry": {"type": "LineString", "coordinates": [[23.7001965, 38.005174], [23.700163, 38.0052245], [23.7001417, 38.005255], [23.7000854, 38.0053348]]}, "properties": {"feature_type": "road", "highway": "tertiary", "landuse": ""}}, {"type": "Feature", "geometry": {"type": "LineString", "coordinates": [[23.7001965, 38.005174], [23.7000593, 38.005011]]}, "properties": {"feature_type": "road", "highway": "tertiary", "landuse": ""}}, {"type": "Feature", "geometry": {"type": "LineString", "coordinates": [[23.7000593, 38.005011], [23.6999128, 38.0050597], [23.6995789, 38.0051451], [23.6992043, 38.0052287], [23.6989864, 38.0052666], [23.6987462, 38.0052916], [23.6984981, 38.0052878], [23.6982966, 38.0052554], [23.6981629, 38.0052469], [23.6972949, 38.0053228], [23.6971027, 38.0053314], [23.6969104, 38.0053296], [23.6967946, 38.0053176], [23.6964374, 38.0052744], [23.6962175, 38.0052495]]}, "properties": {"feature_type": "road", "highway": "tertiary", "landuse": ""}}, {"type": "Feature", "geometry": {"type": "LineString", "coordinates": [[23.702844, 38.0107027], [23.7028404, 38.0106691], [23.702836, 38.0106434], [23.7028277, 38.0106192], [23.7028022, 38.010579], [23.7022595, 38.0099961], [23.701913, 38.0096195]]}, "properties": {"feature_type": "road", "highway": "tertiary", "landuse": ""}}, {"type": "Feature", "geometry": {"type": "LineString", "coordinates": [[23.7008607, 38.0051286], [23.7008578, 38.0050346], [23.7009331, 38.0049684], [23.7010616, 38.0049682]]}, "properties": {"feature_type": "road", "highway": "service", "landuse": ""}}, {"type": "Feature", "geometry": {"type": "LineString", "coordinates": [[23.7074298, 37.9998856], [23.7079703, 38.0003095], [23.7083326, 38.0005936]]}, "properties": {"feature_type": "road", "highway": "residential", "landuse": ""}}, {"type": "Feature", "geometry": {"type": "LineString", "coordinates": [[23.6999115, 38.0036696], [23.7004307, 38.0041701], [23.7005286, 38.0042383]]}, "properties": {"feature_type": "road", "highway": "residential", "landuse": ""}}, {"type": "Feature", "geometry": {"type": "LineString", "coordinates": [[23.7066701, 38.0103534], [23.706669, 38.0099497], [23.7066714, 38.0098083], [23.7066726, 38.0095635], [23.706675, 38.00935], [23.7066732, 38.0090242]]}, "properties": {"feature_type": "road", "highway": "residential", "landuse": ""}}, {"type": "Feature", "geometry": {"type": "LineString", "coordinates": [[23.6982435, 38.009369], [23.6989764, 38.0090333], [23.7000427, 38.008449]]}, "properties": {"feature_type": "road", "highway": "residential", "landuse": ""}}, {"type": "Feature", "geometry": {"type": "LineString", "coordinates": [[23.7089182, 38.0054599], [23.7091852, 38.0050303]]}, "properties": {"feature_type": "road", "highway": "service", "landuse": ""}}, {"type": "Feature", "geometry": {"type": "LineString", "coordinates": [[23.7069886, 38.0056447], [23.7070274, 38.0059322]]}, "properties": {"feature_type": "road", "highway": "residential", "landuse": ""}}, {"type": "Feature", "geometry": {"type": "LineString", "coordinates": [[23.7001784, 38.0048829], [23.6997682, 38.0043598], [23.6997065, 38.0042511]]}, "properties": {"feature_type": "road", "highway": "residential", "landuse": ""}}, {"type": "Feature", "geometry": {"type": "LineString", "coordinates": [[23.7000593, 38.005011], [23.7001784, 38.0048829]]}, "properties": {"feature_type": "road", "highway": "tertiary", "landuse": ""}}, {"type": "Feature", "geometry": {"type": "LineString", "coordinates": [[23.7052614, 38.0083514], [23.7054933, 38.008742]]}, "properties": {"feature_type": "road", "highway": "residential", "landuse": ""}}, {"type": "Feature", "geometry": {"type": "LineString", "coordinates": [[23.6998517, 38.0074927], [23.7001142, 38.0077646], [23.7002591, 38.0079147], [23.7003279, 38.0079878], [23.7003747, 38.0080376], [23.700407, 38.0080715], [23.7008886, 38.0085797]]}, "properties": {"feature_type": "road", "highway": "tertiary", "landuse": ""}}, {"type": "Feature", "geometry": {"type": "LineString", "coordinates": [[23.7049977, 38.0017463], [23.7051609, 38.0016136]]}, "properties": {"feature_type": "road", "highway": "secondary", "landuse": ""}}, {"type": "Feature", "geometry": {"type": "LineString", "coordinates": [[23.7049977, 38.0017463], [23.7048983, 38.0016873], [23.7047826, 38.001627], [23.7047319, 38.0015993]]}, "properties": {"feature_type": "road", "highway": "secondary", "landuse": ""}}, {"type": "Feature", "geometry": {"type": "LineString", "coordinates": [[23.7051034, 38.0018034], [23.7049977, 38.0017463]]}, "properties": {"feature_type": "road", "highway": "secondary", "landuse": ""}}, {"type": "Feature", "geometry": {"type": "LineString", "coordinates": [[23.7051034, 38.0018034], [23.7050666, 38.0018336], [23.7049477, 38.0019314]]}, "properties": {"feature_type": "road", "highway": "secondary", "landuse": ""}}, {"type": "Feature", "geometry": {"type": "LineString", "coordinates": [[23.7052879, 38.0016478], [23.7051034, 38.0018034]]}, "properties": {"feature_type": "road", "highway": "secondary", "landuse": ""}}, {"type": "Feature", "geometry": {"type": "LineString", "coordinates": [[23.7053903, 38.0014349], [23.7054669, 38.0013695], [23.7056621, 38.0012127]]}, "properties": {"feature_type": "road", "highway": "secondary", "landuse": ""}}, {"type": "Feature", "geometry": {"type": "LineString", "coordinates": [[23.701451, 38.0048048], [23.7016853, 38.0049753]]}, "properties": {"feature_type": "road", "highway": "service", "landuse": ""}}, {"type": "Feature", "geometry": {"type": "LineString", "coordinates": [[23.7056621, 38.0012127], [23.7063468, 38.0006441], [23.7064244, 38.0005797]]}, "properties": {"feature_type": "road", "highway": "secondary", "landuse": ""}}, {"type": "Feature", "geometry": {"type": "LineString", "coordinates": [[23.700022, 38.0059858], [23.6999549, 38.0060413], [23.6998334, 38.0061416], [23.6997672, 38.0061963]]}, "properties": {"feature_type": "road", "highway": "secondary", "landuse": ""}}, {"type": "Feature", "geometry": {"type": "LineString", "coordinates": [[23.7059662, 38.0017832], [23.7060793, 38.0018558], [23.7061387, 38.0018939]]}, "properties": {"feature_type": "road", "highway": "secondary", "landuse": ""}}, {"type": "Feature", "geometry": {"type": "LineString", "coordinates": [[23.7051609, 38.0016136], [23.7051894, 38.0015947]]}, "properties": {"feature_type": "road", "highway": "secondary", "landuse": ""}}, {"type": "Feature", "geometry": {"type": "LineString", "coordinates": [[23.7022416, 38.0078499], [23.7021734, 38.0077931]]}, "properties": {"feature_type": "road", "highway": "tertiary", "landuse": ""}}, {"type": "Feature", "geometry": {"type": "LineString", "coordinates": [[23.7007961, 38.005346], [23.7005043, 38.0055871], [23.7004655, 38.0056192], [23.7003938, 38.0056785]]}, "properties": {"feature_type": "road", "highway": "secondary", "landuse": ""}}, {"type": "Feature", "geometry": {"type": "LineString", "coordinates": [[23.7040238, 38.0025376], [23.7043934, 38.0022373]]}, "properties": {"feature_type": "road", "highway": "secondary", "landuse": ""}}, {"type": "Feature", "geometry": {"type": "LineString", "coordinates": [[23.705325, 38.0016183], [23.7052879, 38.0016478]]}, "properties": {"feature_type": "road", "highway": "secondary", "landuse": ""}}, {"type": "Feature", "geometry": {"type": "LineString", "coordinates": [[23.7112966, 38.0054484], [23.7111109, 38.0053676], [23.7109412, 38.0052957], [23.7107536, 38.0052218], [23.7098129, 38.0048845]]}, "properties": {"feature_type": "road", "highway": "motorway", "landuse": ""}}, {"type": "Feature", "geometry": {"type": "LineString", "coordinates": [[23.7018715, 38.0001814], [23.7022211, 38.0003284]]}, "properties": {"feature_type": "road", "highway": "motorway", "landuse": ""}}, {"type": "Feature", "geometry": {"type": "LineString", "coordinates": [[23.7036111, 38.0008424], [23.7042764, 38.0010849], [23.7044594, 38.0011547]]}, "properties": {"feature_type": "road", "highway": "motorway", "landuse": ""}}, {"type": "Feature", "geometry": {"type": "LineString", "coordinates": [[23.7044594, 38.0011547], [23.7046367, 38.0012236], [23.7047039, 38.0012536]]}, "properties": {"feature_type": "road", "highway": "motorway", "landuse": ""}}, {"type": "Feature", "geometry": {"type": "LineString", "coordinates": [[23.7064947, 38.0022958], [23.7065777, 38.0023527], [23.7067366, 38.0024673], [23.7068732, 38.0025687], [23.7070148, 38.0026761], [23.7071573, 38.0027878], [23.7072992, 38.0029056], [23.7074387, 38.003024]]}, "properties": {"feature_type": "road", "highway": "motorway", "landuse": ""}}, {"type": "Feature", "geometry": {"type": "LineString", "coordinates": [[23.7098129, 38.0048845], [23.7096401, 38.0048129], [23.709466, 38.0047345], [23.7092872, 38.0046519], [23.7091218, 38.0045596], [23.7089542, 38.0044606], [23.7088046, 38.0043591], [23.7086759, 38.004262]]}, "properties": {"feature_type": "road", "highway": "motorway", "landuse": ""}}, {"type": "Feature", "geometry": {"type": "LineString", "coordinates": [[23.7068334, 38.0029389], [23.7067769, 38.0028913], [23.7066297, 38.0027899]]}, "properties": {"feature_type": "road", "highway": "secondary", "landuse": ""}}, {"type": "Feature", "geometry": {"type": "LineString", "coordinates": [[23.7049687, 38.0012303], [23.7052564, 38.0013699], [23.7053147, 38.0013982], [23.7053903, 38.0014349]]}, "properties": {"feature_type": "road", "highway": "secondary", "landuse": ""}}, {"type": "Feature", "geometry": {"type": "LineString", "coordinates": [[23.7039722, 38.0011472], [23.7029676, 38.0007809]]}, "properties": {"feature_type": "road", "highway": "motorway", "landuse": ""}}, {"type": "Feature", "geometry": {"type": "LineString", "coordinates": [[23.7029676, 38.0007809], [23.7021207, 38.0004645], [23.7017645, 38.0003164], [23.7015791, 38.0002405], [23.7014081, 38.0001647], [23.7012005, 38.0000725]]}, "properties": {"feature_type": "road", "highway": "motorway", "landuse": ""}}, {"type": "Feature", "geometry": {"type": "LineString", "coordinates": [[23.6971106, 38.0042468], [23.6973106, 38.0042502], [23.6975318, 38.0042548], [23.69767, 38.0042536], [23.6978746, 38.0042534], [23.6981262, 38.0042527], [23.6988221, 38.0042472], [23.6995904, 38.0042502], [23.6997065, 38.0042511], [23.7001565, 38.0042481], [23.7003972, 38.0042451], [23.7005286, 38.0042383]]}, "properties": {"feature_type": "road", "highway": "tertiary", "landuse": ""}}, {"type": "Feature", "geometry": {"type": "LineString", "coordinates": [[23.707245, 38.0011907], [23.7070557, 38.0010502], [23.7066058, 38.0007163], [23.7065818, 38.0006986], [23.7065107, 38.0006457]]}, "properties": {"feature_type": "road", "highway": "residential", "landuse": ""}}, {"type": "Feature", "geometry": {"type": "LineString", "coordinates": [[23.7010976, 37.9998456], [23.7015074, 38.0000279], [23.7016865, 38.0001067], [23.7018715, 38.0001814]]}, "properties": {"feature_type": "road", "highway": "motorway", "landuse": ""}}, {"type": "Feature", "geometry": {"type": "LineString", "coordinates": [[23.7100682, 38.0051725], [23.7097972, 38.0056278], [23.7098388, 38.0056524], [23.7097884, 38.0057514]]}, "properties": {"feature_type": "road", "highway": "service", "landuse": ""}}, {"type": "Feature", "geometry": {"type": "LineString", "coordinates": [[23.7091122, 38.0047864], [23.7089776, 38.0049944], [23.7087298, 38.0053811]]}, "properties": {"feature_type": "road", "highway": "residential", "landuse": ""}}, {"type": "Feature", "geometry": {"type": "LineString", "coordinates": [[23.7083425, 38.0059576], [23.7085037, 38.0060948], [23.7088407, 38.0063551], [23.7096351, 38.006943], [23.7099767, 38.0071902], [23.7100625, 38.0072821], [23.7102275, 38.0074723], [23.7103951, 38.0077138], [23.7104635, 38.0078406], [23.710493, 38.0079404], [23.7105218, 38.0080255], [23.7105968, 38.0081527]]}, "properties": {"feature_type": "road", "highway": "residential", "landuse": ""}}, {"type": "Feature", "geometry": {"type": "LineString", "coordinates": [[23.7075688, 38.0066476], [23.707505, 38.0067094], [23.7073365, 38.006767], [23.7071805, 38.0067913], [23.7066916, 38.0067904]]}, "properties": {"feature_type": "road", "highway": "residential", "landuse": ""}}, {"type": "Feature", "geometry": {"type": "LineString", "coordinates": [[23.7059185, 38.0022925], [23.7058628, 38.0023374], [23.7056296, 38.0025228], [23.7050168, 38.0030357], [23.7042674, 38.0036501]]}, "properties": {"feature_type": "road", "highway": "residential", "landuse": ""}}, {"type": "Feature", "geometry": {"type": "LineString", "coordinates": [[23.7012067, 38.0029832], [23.7017369, 38.0036335]]}, "properties": {"feature_type": "road", "highway": "residential", "landuse": ""}}, {"type": "Feature", "geometry": {"type": "LineString", "coordinates": [[23.7049477, 38.0019314], [23.7046967, 38.0021374]]}, "properties": {"feature_type": "road", "highway": "secondary", "landuse": ""}}, {"type": "Feature", "geometry": {"type": "LineString", "coordinates": [[23.7043934, 38.0022373], [23.7048138, 38.0018957]]}, "properties": {"feature_type": "road", "highway": "secondary", "landuse": ""}}, {"type": "Feature", "geometry": {"type": "LineString", "coordinates": [[23.7057638, 38.0012634], [23.7055784, 38.0014131], [23.7055568, 38.0014323], [23.7054928, 38.0014846]]}, "properties": {"feature_type": "road", "highway": "secondary", "landuse": ""}}, {"type": "Feature", "geometry": {"type": "LineString", "coordinates": [[23.7097072, 38.0099697], [23.7099347, 38.0103079]]}, "properties": {"feature_type": "road", "highway": "service", "landuse": ""}}, {"type": "Feature", "geometry": {"type": "LineString", "coordinates": [[23.7098163, 38.0103573], [23.7096435, 38.0104295], [23.7094769, 38.0104997], [23.7094489, 38.010496], [23.7094328, 38.0104887], [23.709242, 38.0101937], [23.7092336, 38.010164], [23.709245, 38.0101457], [23.709417, 38.0100802], [23.7095908, 38.010014], [23.7097072, 38.0099697], [23.7097995, 38.0099345], [23.7098464, 38.0099164]]}, "properties": {"feature_type": "road", "highway": "service", "landuse": ""}}, {"type": "Feature", "geometry": {"type": "LineString", "coordinates": [[23.704162, 38.0073515], [23.7035288, 38.0069293]]}, "properties": {"feature_type": "road", "highway": "residential", "landuse": ""}}, {"type": "Feature", "geometry": {"type": "LineString", "coordinates": [[23.7013847, 38.0069224], [23.7014514, 38.0068711]]}, "properties": {"feature_type": "road", "highway": "residential", "landuse": ""}}, {"type": "Feature", "geometry": {"type": "LineString", "coordinates": [[23.7018718, 38.0073402], [23.7017981, 38.0073903]]}, "properties": {"feature_type": "road", "highway": "residential", "landuse": ""}}, {"type": "Feature", "geometry": {"type": "LineString", "coordinates": [[23.7089498, 38.0040931], [23.7090716, 38.0040155]]}, "properties": {"feature_type": "road", "highway": "service", "landuse": ""}}, {"type": "Feature", "geometry": {"type": "LineString", "coordinates": [[23.7088782, 38.0038395], [23.7090716, 38.0040155], [23.7091139, 38.004054], [23.709138, 38.0040669], [23.7091671, 38.004066], [23.7092862, 38.00399], [23.709296, 38.003972], [23.7092906, 38.0039541], [23.7090806, 38.0037446], [23.7090574, 38.0037318]]}, "properties": {"feature_type": "road", "highway": "service", "landuse": ""}}, {"type": "Feature", "geometry": {"type": "LineString", "coordinates": [[23.708612, 38.0038205], [23.7086718, 38.0037842], [23.7086989, 38.0037842], [23.7087249, 38.0038021], [23.708804, 38.003867], [23.7088246, 38.003873], [23.7088365, 38.0038687], [23.7088782, 38.0038395], [23.7090273, 38.0037379], [23.7090574, 38.0037318]]}, "properties": {"feature_type": "road", "highway": "service", "landuse": ""}}, {"type": "Feature", "geometry": {"type": "LineString", "coordinates": [[23.7004083, 37.9998846], [23.7003148, 37.9999493], [23.7002141, 38.0001453], [23.7002065, 38.0002568], [23.7001417, 38.0004772], [23.7000887, 38.0005924], [23.7000357, 38.0006732], [23.6999801, 38.0007218], [23.699911, 38.0007541], [23.6995469, 38.0008751], [23.6994839, 38.000892], [23.6991345, 38.0009712], [23.6989313, 38.0010294], [23.6986624, 38.0011261], [23.6985478, 38.0011694], [23.6983526, 38.0012508], [23.6982849, 38.0012719], [23.6982467, 38.0012724], [23.6982165, 38.0012671], [23.6981899, 38.001248]]}, "properties": {"feature_type": "road", "highway": "service", "landuse": ""}}, {"type": "Feature", "geometry": {"type": "LineString", "coordinates": [[23.7043696, 38.0007769], [23.7045165, 38.0006872], [23.7046613, 38.0005958], [23.704723, 38.0005555], [23.7047614, 38.0005421], [23.7048018, 38.0005496], [23.7048385, 38.0005786]]}, "properties": {"feature_type": "road", "highway": "service", "landuse": ""}}, {"type": "Feature", "geometry": {"type": "LineString", "coordinates": [[23.7038975, 38.0006437], [23.7040407, 38.0005446]]}, "properties": {"feature_type": "road", "highway": "service", "landuse": ""}}, {"type": "Feature", "geometry": {"type": "LineString", "coordinates": [[23.7039322, 38.0004397], [23.7037176, 38.0005792]]}, "properties": {"feature_type": "road", "highway": "service", "landuse": ""}}, {"type": "Feature", "geometry": {"type": "LineString", "coordinates": [[23.703559, 38.0005194], [23.7038151, 38.0003366]]}, "properties": {"feature_type": "road", "highway": "service", "landuse": ""}}, {"type": "Feature", "geometry": {"type": "LineString", "coordinates": [[23.7040614, 38.0007076], [23.7041517, 38.000649]]}, "properties": {"feature_type": "road", "highway": "service", "landuse": ""}}, {"type": "Feature", "geometry": {"type": "LineString", "coordinates": [[23.7033896, 38.0004432], [23.7034083, 38.0004539], [23.7034218, 38.0004626], [23.703559, 38.0005194], [23.7037176, 38.0005792], [23.7038975, 38.0006437], [23.7040614, 38.0007076], [23.7042312, 38.0007815], [23.7043271, 38.0008365]]}, "properties": {"feature_type": "road", "highway": "service", "landuse": ""}}, {"type": "Feature", "geometry": {"type": "LineString", "coordinates": [[23.7042417, 38.000936], [23.704293, 38.0008734], [23.7043271, 38.0008365], [23.7043696, 38.0007769], [23.7043547, 38.0007543], [23.7043079, 38.0007199], [23.7042249, 38.0006914], [23.7041517, 38.000649], [23.7040407, 38.0005446], [23.7039322, 38.0004397], [23.7038151, 38.0003366], [23.7037523, 38.0002812], [23.7037108, 38.0002678], [23.703648, 38.000272], [23.7035681, 38.0003181], [23.7033896, 38.0004432]]}, "properties": {"feature_type": "road", "highway": "service", "landuse": ""}}, {"type": "Feature", "geometry": {"type": "LineString", "coordinates": [[23.7033896, 38.0004432], [23.7033489, 38.0004263], [23.7032584, 38.0003953], [23.7031828, 38.0003475], [23.7030955, 38.0002661], [23.7030253, 38.0002091], [23.7029433, 38.0001713], [23.7028717, 38.0001491]]}, "properties": {"feature_type": "road", "highway": "service", "landuse": ""}}, {"type": "Feature", "geometry": {"type": "LineString", "coordinates": [[23.7028717, 38.0001491], [23.7028528, 38.0001889], [23.7028262, 38.00022], [23.7028071, 38.0002644], [23.7028092, 38.0003072], [23.7028294, 38.0004244]]}, "properties": {"feature_type": "road", "highway": "service", "landuse": ""}}, {"type": "Feature", "geometry": {"type": "LineString", "coordinates": [[23.7026019, 38.0003378], [23.7028283, 38.0001587], [23.7028717, 38.0001491]]}, "properties": {"feature_type": "road", "highway": "service", "landuse": ""}}, {"type": "Feature", "geometry": {"type": "LineString", "coordinates": [[23.7028717, 38.0001491], [23.703665, 37.999601], [23.7039886, 37.9993753], [23.7042891, 37.9991722], [23.7044559, 37.9990575]]}, "properties": {"feature_type": "road", "highway": "service", "landuse": ""}}, {"type": "Feature", "geometry": {"type": "LineString", "coordinates": [[23.7048385, 38.0005786], [23.7048726, 38.0006309]]}, "properties": {"feature_type": "road", "highway": "residential", "landuse": ""}}, {"type": "Feature", "geometry": {"type": "LineString", "coordinates": [[23.7052074, 38.0002636], [23.7052543, 38.0003058]]}, "properties": {"feature_type": "road", "highway": "residential", "landuse": ""}}, {"type": "Feature", "geometry": {"type": "LineString", "coordinates": [[23.704357, 38.0009794], [23.7045591, 38.0008063], [23.7048385, 38.0005786], [23.7050019, 38.0004339], [23.7052074, 38.0002636], [23.7053787, 38.0001269], [23.7055917, 37.9999426]]}, "properties": {"feature_type": "road", "highway": "residential", "landuse": ""}}, {"type": "Feature", "geometry": {"type": "LineString", "coordinates": [[23.7051511, 38.0098334], [23.7049797, 38.0096795]]}, "properties": {"feature_type": "road", "highway": "tertiary", "landuse": ""}}, {"type": "Feature", "geometry": {"type": "LineString", "coordinates": [[23.7040087, 38.0090448], [23.7031395, 38.0085252], [23.7031066, 38.0085075], [23.7030327, 38.0084631]]}, "properties": {"feature_type": "road", "highway": "tertiary", "landuse": ""}}, {"type": "Feature", "geometry": {"type": "LineString", "coordinates": [[23.7070158, 38.0031124], [23.7068966, 38.0031181], [23.7067666, 38.0030042], [23.7067769, 38.0028913]]}, "properties": {"feature_type": "road", "highway": "service", "landuse": ""}}, {"type": "Feature", "geometry": {"type": "LineString", "coordinates": [[23.7067666, 38.0030042], [23.7064603, 38.0030991]]}, "properties": {"feature_type": "road", "highway": "service", "landuse": ""}}, {"type": "Feature", "geometry": {"type": "LineString", "coordinates": [[23.7011115, 38.0064953], [23.7014514, 38.0068711], [23.7017921, 38.0072478]]}, "properties": {"feature_type": "road", "highway": "tertiary", "landuse": ""}}, {"type": "Feature", "geometry": {"type": "LineString", "coordinates": [[23.708995, 38.0010666], [23.7093399, 38.0013276]]}, "properties": {"feature_type": "road", "highway": "residential", "landuse": ""}}, {"type": "Feature", "geometry": {"type": "LineString", "coordinates": [[23.7010404, 38.0065373], [23.700935, 38.0064194], [23.7008654, 38.0063415], [23.7007546, 38.0062175]]}, "properties": {"feature_type": "road", "highway": "tertiary", "landuse": ""}}, {"type": "Feature", "geometry": {"type": "LineString", "coordinates": [[23.6999479, 37.999869], [23.7000109, 37.9999123], [23.7000914, 37.9999926], [23.7001739, 38.0000798], [23.7002141, 38.0001453]]}, "properties": {"feature_type": "road", "highway": "service", "landuse": ""}}, {"type": "Feature", "geometry": {"type": "LineString", "coordinates": [[23.7024789, 38.0024734], [23.7028995, 38.003058]]}, "properties": {"feature_type": "road", "highway": "service", "landuse": ""}}, {"type": "Feature", "geometry": {"type": "LineString", "coordinates": [[23.7055697, 38.0047548], [23.7058333, 38.0047064], [23.7060638, 38.0046671]]}, "properties": {"feature_type": "road", "highway": "residential", "landuse": ""}}, {"type": "Feature", "geometry": {"type": "LineString", "coordinates": [[23.7004483, 38.006341], [23.7003301, 38.0064102], [23.7001807, 38.0064976], [23.700084, 38.0065542], [23.6999633, 38.0066248]]}, "properties": {"feature_type": "road", "highway": "service", "landuse": ""}}, {"type": "Feature", "geometry": {"type": "LineString", "coordinates": [[23.7007808, 38.0066901], [23.7006147, 38.0065157], [23.7004483, 38.006341], [23.7001685, 38.0060474]]}, "properties": {"feature_type": "road", "highway": "service", "landuse": ""}}, {"type": "Feature", "geometry": {"type": "Polygon", "coordinates": [[[23.7016059, 38.0082334], [23.7016509, 38.0082743], [23.7016795, 38.0082548], [23.7016848, 38.0082596], [23.7017061, 38.008245], [23.7016869, 38.0082275], [23.7016494, 38.0082531], [23.7016184, 38.0082249], [23.7016059, 38.0082334]]]}, "properties": {"feature_type": "urban", "highway": "", "landuse": "residential"}}, {"type": "Feature", "geometry": {"type": "Polygon", "coordinates": [[[23.6999974, 38.0063287], [23.6998935, 38.006222], [23.6998655, 38.0061932], [23.6998587, 38.0061884], [23.6994819, 38.0065023], [23.6993585, 38.0066227], [23.6992418, 38.0067284], [23.6992277, 38.0067643], [23.6992358, 38.0067992], [23.6992693, 38.0068446], [23.6996535, 38.007233], [23.6998299, 38.0074184], [23.7001933, 38.0072034], [23.7000207, 38.0070276], [23.7002214, 38.0069222], [23.700084, 38.006786], [23.7000765, 38.0067777], [23.6999335, 38.0066191], [23.6998083, 38.0066961], [23.699659, 38.0065363], [23.6996536, 38.0065304], [23.6999974, 38.0063287]]]}, "properties": {"feature_type": "urban", "highway": "", "landuse": "residential"}}, {"type": "Feature", "geometry": {"type": "LineString", "coordinates": [[23.7062645, 38.0083584], [23.705828, 38.0084656]]}, "properties": {"feature_type": "road", "highway": "service", "landuse": ""}}, {"type": "Feature", "geometry": {"type": "Polygon", "coordinates": [[[23.7092102, 38.0097368], [23.7092407, 38.0097876], [23.7093714, 38.009739], [23.709341, 38.0096882], [23.7092102, 38.0097368]]]}, "properties": {"feature_type": "urban", "highway": "", "landuse": "residential"}}, {"type": "Feature", "geometry": {"type": "Polygon", "coordinates": [[[23.7090185, 38.0098229], [23.7090496, 38.009875], [23.7091194, 38.0098491], [23.7090882, 38.009797], [23.7090185, 38.0098229]]]}, "properties": {"feature_type": "urban", "highway": "", "landuse": "residential"}}, {"type": "Feature", "geometry": {"type": "LineString", "coordinates": [[23.7032406, 38.0029029], [23.7033925, 38.0030062], [23.7034222, 38.0030264], [23.7035259, 38.0030969]]}, "properties": {"feature_type": "road", "highway": "residential", "landuse": ""}}, {"type": "Feature", "geometry": {"type": "LineString", "coordinates": [[23.702431, 38.0091344], [23.7019557, 38.0086986], [23.701457, 38.0082327]]}, "properties": {"feature_type": "road", "highway": "residential", "landuse": ""}}, {"type": "Feature", "geometry": {"type": "LineString", "coordinates": [[23.7022595, 38.0099961], [23.7026248, 38.0097899], [23.7029319, 38.0096219]]}, "properties": {"feature_type": "road", "highway": "residential", "landuse": ""}}, {"type": "Feature", "geometry": {"type": "LineString", "coordinates": [[23.702431, 38.0091344], [23.7021587, 38.0093997], [23.701913, 38.0096195]]}, "properties": {"feature_type": "road", "highway": "tertiary", "landuse": ""}}, {"type": "Feature", "geometry": {"type": "LineString", "coordinates": [[23.702431, 38.0091344], [23.7026832, 38.0093798], [23.7029026, 38.0095933], [23.7029319, 38.0096219]]}, "properties": {"feature_type": "road", "highway": "residential", "landuse": ""}}, {"type": "Feature", "geometry": {"type": "LineString", "coordinates": [[23.701783, 38.0080291], [23.7026304, 38.0088016], [23.7026842, 38.0088502]]}, "properties": {"feature_type": "road", "highway": "residential", "landuse": ""}}, {"type": "Feature", "geometry": {"type": "LineString", "coordinates": [[23.7026842, 38.0088502], [23.7025946, 38.0089485], [23.7025454, 38.0090045], [23.702431, 38.0091344]]}, "properties": {"feature_type": "road", "highway": "tertiary", "landuse": ""}}, {"type": "Feature", "geometry": {"type": "LineString", "coordinates": [[23.7026842, 38.0088502], [23.7027402, 38.0088943], [23.7031823, 38.0092515], [23.7033287, 38.0093695], [23.7033617, 38.0093961]]}, "properties": {"feature_type": "road", "highway": "residential", "landuse": ""}}, {"type": "Feature", "geometry": {"type": "LineString", "coordinates": [[23.7029319, 38.0096219], [23.7033617, 38.0093961]]}, "properties": {"feature_type": "road", "highway": "residential", "landuse": ""}}, {"type": "Feature", "geometry": {"type": "Polygon", "coordinates": [[[23.6981456, 38.0092048], [23.6985414, 38.0082331], [23.6994155, 38.0077945], [23.6999908, 38.0075014], [23.6999531, 38.0074615], [23.7002374, 38.0072785], [23.7004148, 38.0071196], [23.7002214, 38.0069222], [23.700084, 38.006786], [23.7000765, 38.0067777], [23.6999335, 38.0066191], [23.6998083, 38.0066961], [23.699659, 38.0065363], [23.6996536, 38.0065304], [23.6999974, 38.0063287], [23.6998935, 38.006222], [23.6998655, 38.0061932], [23.7049852, 38.0019593], [23.7050904, 38.0019329], [23.7052532, 38.0019335], [23.7056347, 38.0021606], [23.7063824, 38.0026562], [23.7065213, 38.0041468], [23.7066524, 38.0059684], [23.7066501, 38.0065646], [23.7066469, 38.0072934], [23.7066407, 38.0077201], [23.7066304, 38.0083184], [23.7065736, 38.008343], [23.7063937, 38.0083155], [23.7062184, 38.0082833], [23.7062266, 38.0092015], [23.7063735, 38.0091263], [23.7066335, 38.0091242], [23.7066413, 38.0103264], [23.7066332, 38.0113736], [23.7061968, 38.0114581], [23.7060664, 38.0115079], [23.705783, 38.0116911], [23.7054931, 38.0118728], [23.7051619, 38.0120962], [23.7039039, 38.011578], [23.7040275, 38.0112567], [23.7039427, 38.0112408], [23.7036051, 38.0113873], [23.7035177, 38.0114768], [23.7027414, 38.0113514], [23.7020469, 38.0112384], [23.7012742, 38.0111057], [23.7004749, 38.0109678], [23.7002376, 38.0109519], [23.6996371, 38.0109559], [23.6994896, 38.010839], [23.6991757, 38.0104496], [23.6987302, 38.0099175], [23.6981456, 38.0092048]]]}, "properties": {"feature_type": "urban", "highway": "", "landuse": "residential"}}]}